{"type": "FeatureCollection", "features": [{"type": "Feature", "geometry": {"type": "Point", "coordinates": [101.62716, 3.07265]}, "properties": {"Nama": "Tanah Perkuburan Islam Taman Medan PJS4", "Kategori": "Perkuburan Islam", "Agama": "Islam", "Daerah": "Petaling", "PBT": "MBPJ", "Lokasi": "Taman Medan / PJS4", "Alamat": "Lorong PJS 4/12, Taman Medan, 46150 Petaling Jaya, Selangor, Malaysia", "Luas_Hek": 2.9953, "Latitude": 3.07265, "Longitude": 101.62716}}, {"type": "Feature", "geometry": {"type": "Point", "coordinates": [101.6258, 3.0977]}, "properties": {"Nama": "Tanah Perkuburan Islam Seksyen 19/1 (Lama)", "Kategori": "Perkuburan Islam", "Agama": "Islam", "Daerah": "Petaling", "PBT": "MBPJ", "Lokasi": "Seksyen 19", "Alamat": "Seksyen 19 / Kampung Tunku, 46300 Petaling Jaya, Selangor, Malaysia", "Luas_Hek": 1.1859, "Latitude": 3.0977, "Longitude": 101.6258}}, {"type": "Feature", "geometry": {"type": "Point", "coordinates": [101.52338, 3.1602]}, "properties": {"Nama": "Tanah Perkuburan Islam Kampung Melayu Subang", "Kategori": "Perkuburan Islam", "Agama": "Islam", "Daerah": "Petaling", "PBT": "MBSA", "Lokasi": "Kampung Melayu Subang", "Alamat": "Jalan Pusara Aman, Kampung Melayu Subang, 40150 Shah Alam, Selangor, Malaysia", "Luas_Hek": 1.5748, "Latitude": 3.1602, "Longitude": 101.52338}}, {"type": "Feature", "geometry": {"type": "Point", "coordinates": [101.7053, 3.0009]}, "properties": {"Nama": "Tanah Perkuburan Islam Universiti Putra Malaysia", "Kategori": "Perkuburan Islam", "Agama": "Islam", "Daerah": "Petaling", "PBT": "MBSJ", "Lokasi": "Serdang / UPM", "Alamat": "UPM, 43400 Serdang, Selangor, Malaysia", "Luas_Hek": 2.7814, "Latitude": 3.0009, "Longitude": 101.7053}}, {"type": "Feature", "geometry": {"type": "Point", "coordinates": [101.625171, 3.0977223]}, "properties": {"Nama": "Tanah Perkuburan Islam MBPJ Kg. Tungku", "Kategori": "Perkuburan Islam", "Agama": "Islam", "Daerah": "Petaling", "PBT": "MBPJ", "Lokasi": "Kg. Tungku / Seksyen 22", "Alamat": "Seksyen 22, Petaling Jaya, Selangor, Malaysia", "Luas_Hek": 2.2685, "Latitude": 3.0977223, "Longitude": 101.625171}}, {"type": "Feature", "geometry": {"type": "Point", "coordinates": [101.62551, 2.9937]}, "properties": {"Nama": "Tanah Perkuburan Islam Batu 14 Puchong", "Kategori": "Perkuburan Islam", "Agama": "Islam", "Daerah": "Petaling", "PBT": "MBSJ", "Lokasi": "Kampung Baru Puchong", "Alamat": "Jalan B7/14, Bandar Bukit Puchong, 47100 Puchong, Selangor, Malaysia", "Luas_Hek": 1.6023, "Latitude": 2.9937, "Longitude": 101.62551}}, {"type": "Feature", "geometry": {"type": "Point", "coordinates": [101.6245, 2.9855]}, "properties": {"Nama": "Tanah Perkuburan Islam Kariah Masjid Bandar Bukit Puchong", "Kategori": "Perkuburan Islam", "Agama": "Islam", "Daerah": "Petaling", "PBT": "MBSJ", "Lokasi": "Bandar Bukit Puchong", "Alamat": "Jalan BP 17/1, Bandar Bukit Puchong, 47120 Puchong, Selangor, Malaysia", "Luas_Hek": 1.1749, "Latitude": 2.9855, "Longitude": 101.6245}}, {"type": "Feature", "geometry": {"type": "Point", "coordinates": [101.58572, 3.02308]}, "properties": {"Nama": "Tanah Perkuburan Islam USJ 22", "Kategori": "Perkuburan Islam", "Agama": "Islam", "Daerah": "Petaling", "PBT": "MBSJ", "Lokasi": "USJ 22", "Alamat": "USJ 22, 47630 Subang Jaya, Selangor, Malaysia", "Luas_Hek": 9.3077, "Latitude": 3.02308, "Longitude": 101.58572}}, {"type": "Feature", "geometry": {"type": "Point", "coordinates": [101.58351, 3.18524]}, "properties": {"Nama": "Tanah Perkuburan Islam Seksyen 9 Kota Damansara", "Kategori": "Perkuburan Islam", "Agama": "Islam", "Daerah": "Petaling", "PBT": "MBPJ", "Lokasi": "Kota Damansara", "Alamat": "Persiaran Mahogani, Seksyen 9, Kota Damansara, 47810 Petaling Jaya, Selangor, Malaysia", "Luas_Hek": 20.8083, "Latitude": 3.18524, "Longitude": 101.58351}}, {"type": "Feature", "geometry": {"type": "Point", "coordinates": [101.57473, 2.98342]}, "properties": {"Nama": "Tanah Perkuburan Islam Putra Heights", "Kategori": "Perkuburan Islam", "Agama": "Islam", "Daerah": "Petaling", "PBT": "MBSJ", "Lokasi": "Putra Heights", "Alamat": "Jalan Kemboja, Putra Heights, Subang Jaya, Selangor, Malaysia", "Luas_Hek": 0.0098, "Latitude": 2.98342, "Longitude": 101.57473}}, {"type": "Feature", "geometry": {"type": "Point", "coordinates": [101.57473, 2.98342]}, "properties": {"Nama": "Tanah Perkuburan Islam Putra Heights", "Kategori": "Perkuburan Islam", "Agama": "Islam", "Daerah": "Petaling", "PBT": "MBSJ", "Lokasi": "Putra Heights", "Alamat": "Jalan Kemboja, Putra Heights, Subang Jaya, Selangor, Malaysia", "Luas_Hek": 0.0059, "Latitude": 2.98342, "Longitude": 101.57473}}, {"type": "Feature", "geometry": {"type": "Point", "coordinates": [101.57473, 2.98342]}, "properties": {"Nama": "Tanah Perkuburan Islam Putra Heights", "Kategori": "Perkuburan Islam", "Agama": "Islam", "Daerah": "Petaling", "PBT": "MBSJ", "Lokasi": "Putra Heights", "Alamat": "Jalan Kemboja, Putra Heights, Subang Jaya, Selangor, Malaysia", "Luas_Hek": 13.5994, "Latitude": 2.98342, "Longitude": 101.57473}}, {"type": "Feature", "geometry": {"type": "Point", "coordinates": [101.62234, 3.09562]}, "properties": {"Nama": "Petaling Jaya Chinese Cemetery", "Kategori": "Perkuburan Buddha/Tao", "Agama": "Bukan Islam", "Daerah": "Petaling", "PBT": "MBPJ", "Lokasi": "Kampung Tunku / Seksyen 51A", "Alamat": "Jalan 51A/229, Seksyen 51A, 46100 Petaling Jaya, Selangor, Malaysia", "Luas_Hek": 5.2553, "Latitude": 3.09562, "Longitude": 101.62234}}, {"type": "Feature", "geometry": {"type": "Point", "coordinates": [101.616, 3.1268]}, "properties": {"Nama": "Damansara MBPJ Hindu Cemetery", "Kategori": "Perkuburan Hindu", "Agama": "Bukan Islam", "Daerah": "Petaling", "PBT": "MBPJ", "Lokasi": "Damansara Jaya", "Alamat": "Jalan SS 22/7, Damansara Jaya, 47400 Petaling Jaya, Selangor, Malaysia", "Luas_Hek": 3.9481, "Latitude": 3.1268, "Longitude": 101.616}}, {"type": "Feature", "geometry": {"type": "Point", "coordinates": [101.6249, 3.0969]}, "properties": {"Nama": "Petaling Jaya Christian Cemetery", "Kategori": "Perkuburan Kristian", "Agama": "Bukan Islam", "Daerah": "Petaling", "PBT": "MBPJ", "Lokasi": "Seksyen 22", "Alamat": "Jalan 22/49, Seksyen 22, 46300 Petaling Jaya, Selangor, Malaysia", "Luas_Hek": 1.1181, "Latitude": 3.0969, "Longitude": 101.6249}}, {"type": "Feature", "geometry": {"type": "Point", "coordinates": [101.5178461, 3.1490196]}, "properties": {"Nama": "Subang Village Chinese Cemetery", "Kategori": "Perkuburan Buddha/Tao", "Agama": "Bukan Islam", "Daerah": "Petaling", "PBT": "MBSA", "Lokasi": "Pekan Subang", "Alamat": "Pekan Subang, 40150 Shah Alam, Selangor, Malaysia", "Luas_Hek": 0.8249, "Latitude": 3.1490196, "Longitude": 101.5178461}}, {"type": "Feature", "geometry": {"type": "Point", "coordinates": [101.62234, 3.09562]}, "properties": {"Nama": "Gui Yuan Funeral Crematorium Petaling Jaya", "Kategori": "Krematorium/Dewan Pengurusan Mayat", "Agama": "Bukan Islam", "Daerah": "Petaling", "PBT": "MBPJ", "Lokasi": "Seksyen 51A", "Alamat": "Jalan 51A/229, Seksyen 51A, 46100 Petaling Jaya, Selangor, Malaysia", "Luas_Hek": 1.4997, "Latitude": 3.09562, "Longitude": 101.62234}}, {"type": "Feature", "geometry": {"type": "Point", "coordinates": [101.469684, 3.139552]}, "properties": {"Nama": "Tanah Perkuburan Bahai Seksyen U14", "Kategori": "Perkuburan Lain", "Agama": "Bukan Islam", "Daerah": "Petaling", "PBT": "MBSA", "Lokasi": "Seksyen U14", "Alamat": "Lot 2720, Kompleks Perkuburan Bersepadu Seksyen U14, Jalan Setia Makmur U14/49, Setia Alam, 40170 Shah Alam, Selangor, Malaysia", "Luas_Hek": 18.2222, "Latitude": 3.139552, "Longitude": 101.469684}}, {"type": "Feature", "geometry": {"type": "Point", "coordinates": [101.571, 3.174]}, "properties": {"Nama": "Indian Cemetery (RRIM / Sungai Buloh)", "Kategori": "Perkuburan Hindu", "Agama": "Bukan Islam", "Daerah": "Petaling", "PBT": "MBSA", "Lokasi": "RRIM / Sungai Buloh", "Alamat": "Research Station Jalan Sungai Buloh, 40160 Selangor, Malaysia", "Luas_Hek": 0.2022, "Latitude": 3.174, "Longitude": 101.571}}, {"type": "Feature", "geometry": {"type": "Point", "coordinates": [101.41224, 3.0238]}, "properties": {"Nama": "Tanah Perkuburan Islam Selat Klang", "Kategori": "Perkuburan Islam", "Agama": "Islam", "Daerah": "Klang", "PBT": "MBDK", "Lokasi": "Kampung Sungai Sireh Tambahan", "Alamat": "Kampung Sungai Sireh Tambahan, 42000 Port Klang, Selangor, Malaysia", "Luas_Hek": 6.53, "Latitude": 3.0238, "Longitude": 101.41224}}, {"type": "Feature", "geometry": {"type": "Point", "coordinates": [101.40956, 3.02387]}, "properties": {"Nama": "Tanah Perkuburan Islam Selat Klang (Baru)", "Kategori": "Perkuburan Islam", "Agama": "Islam", "Daerah": "Klang", "PBT": "MBDK", "Lokasi": "Kampung Sungai Sireh Tambahan", "Alamat": "Jalan Sireh Tambahan 15, Kampung Sungai Sireh Tambahan, 42000 Port Klang, Selangor, Malaysia", "Luas_Hek": 4.9891, "Latitude": 3.02387, "Longitude": 101.40956}}, {"type": "Feature", "geometry": {"type": "Point", "coordinates": [101.44362, 3.06375]}, "properties": {"Nama": "Tanah Perkuburan Islam Kampung Batu Belah", "Kategori": "Perkuburan Islam", "Agama": "Islam", "Daerah": "Klang", "PBT": "MBDK", "Lokasi": "Kawasan 19 / Batu Belah", "Alamat": "Kawasan 19, 41400 Klang, Selangor, Malaysia", "Luas_Hek": 1.063, "Latitude": 3.06375, "Longitude": 101.44362}}, {"type": "Feature", "geometry": {"type": "Point", "coordinates": [101.458, 3.149]}, "properties": {"Nama": "Tanah Perkuburan Islam Meru", "Kategori": "Perkuburan Islam", "Agama": "Islam", "Daerah": "Klang", "PBT": "MBDK", "Lokasi": "Meru", "Alamat": "Jalan Haji Mohd Sharif, Meru, 41050 Klang, Selangor, Malaysia", "Luas_Hek": 2.0067, "Latitude": 3.149, "Longitude": 101.458}}, {"type": "Feature", "geometry": {"type": "Point", "coordinates": [101.4455, 3.0165]}, "properties": {"Nama": "Tanah Perkuburan Islam Sg. Jati, Kg Jawa", "Kategori": "Perkuburan Islam", "Agama": "Islam", "Daerah": "Klang", "PBT": "MBDK", "Lokasi": "Sungai Jati / Kg Jawa", "Alamat": "Taman Sungai Jati Permai, 41000 Klang, Selangor, Malaysia", "Luas_Hek": 0.8452, "Latitude": 3.0165, "Longitude": 101.4455}}, {"type": "Feature", "geometry": {"type": "Point", "coordinates": [101.40497, 3.08274]}, "properties": {"Nama": "Tanah Perkuburan Islam Batu 4, Jalan Kapar", "Kategori": "Perkuburan Islam", "Agama": "Islam", "Daerah": "Klang", "PBT": "MBDK", "Lokasi": "Kampung Batu Empat", "Alamat": "Kampung Batu Empat, 42000 Klang, Selangor, Malaysia", "Luas_Hek": 2.6484, "Latitude": 3.08274, "Longitude": 101.40497}}, {"type": "Feature", "geometry": {"type": "Point", "coordinates": [101.446, 2.996]}, "properties": {"Nama": "Tanah Perkuburan Islam Raudhatul Sa'adah Kampung Johan Setia", "Kategori": "Perkuburan Islam", "Agama": "Islam", "Daerah": "Klang", "PBT": "MBDK", "Lokasi": "Johan Setia", "Alamat": "Lebuh Kebun Nenas 3/KS 8, Kampung Batu Tujuh, 41200 Klang, Selangor, Malaysia", "Luas_Hek": 3.9064, "Latitude": 2.996, "Longitude": 101.446}}, {"type": "Feature", "geometry": {"type": "Point", "coordinates": [101.46821, 3.05451]}, "properties": {"Nama": "Tanah Perkuburan Islam Bukit Cemerlang", "Kategori": "Perkuburan Islam", "Agama": "Islam", "Daerah": "Klang", "PBT": "MBDK", "Lokasi": "Berkeley / Bukit Cemerlang", "Alamat": "Pusat Bandar Berkeley, 41300 Klang, Selangor, Malaysia", "Luas_Hek": 1.2119, "Latitude": 3.05451, "Longitude": 101.46821}}, {"type": "Feature", "geometry": {"type": "Point", "coordinates": [101.429, 3.102]}, "properties": {"Nama": "Tanah Perkuburan Islam Kg. Sementa", "Kategori": "Perkuburan Islam", "Agama": "Islam", "Daerah": "Klang", "PBT": "MBDK", "Lokasi": "Sementa", "Alamat": "Kampung Sementa, 42000 Klang, Selangor, Malaysia", "Luas_Hek": 1.9766, "Latitude": 3.102, "Longitude": 101.429}}, {"type": "Feature", "geometry": {"type": "Point", "coordinates": [101.41543, 3.02399]}, "properties": {"Nama": "Tanah Perkuburan Islam Kampung Raja Uda", "Kategori": "Perkuburan Islam", "Agama": "Islam", "Daerah": "Klang", "PBT": "MBDK", "Lokasi": "Kampung Raja Uda", "Alamat": "Kampung Raja Uda, 42000 Port Klang, Selangor, Malaysia", "Luas_Hek": 1.5958, "Latitude": 3.02399, "Longitude": 101.41543}}, {"type": "Feature", "geometry": {"type": "Point", "coordinates": [101.4437681, 3.0242285]}, "properties": {"Nama": "Tanah Perkuburan Islam Masjid Al-Rahimiah", "Kategori": "Perkuburan Islam", "Agama": "Islam", "Daerah": "Klang", "PBT": "MBDK", "Lokasi": "Sri Andalas", "Alamat": "Persiaran Tengku Ampuan Rahimah, Taman Sri Andalas, 41200 Klang, Selangor, Malaysia", "Luas_Hek": 5.5156, "Latitude": 3.0242285, "Longitude": 101.4437681}}, {"type": "Feature", "geometry": {"type": "Point", "coordinates": [101.40946, 3.05674]}, "properties": {"Nama": "Tanah Perkuburan Islam Palembang", "Kategori": "Perkuburan Islam", "Agama": "Islam", "Daerah": "Klang", "PBT": "MBDK", "Lokasi": "Kampung Rantau Panjang", "Alamat": "Jalan Palembang, Kampung Rantau Panjang, 42100 Klang, Selangor, Malaysia", "Luas_Hek": 1.3789, "Latitude": 3.05674, "Longitude": 101.40946}}, {"type": "Feature", "geometry": {"type": "Point", "coordinates": [101.43571, 3.21288]}, "properties": {"Nama": "Tanah Perkuburan Islam Felda Bukit Cherakah", "Kategori": "Perkuburan Islam", "Agama": "Islam", "Daerah": "Klang", "PBT": "MBDK", "Lokasi": "Felda Bukit Cerakah", "Alamat": "Jalan Pusara, Felda Bukit Cerakah, 41050 Klang, Selangor, Malaysia", "Luas_Hek": 0.3861, "Latitude": 3.21288, "Longitude": 101.43571}}, {"type": "Feature", "geometry": {"type": "Point", "coordinates": [101.4485, 3.147]}, "properties": {"Nama": "Tanah Perkuburan Islam Jln Haji Abdul Manan", "Kategori": "Perkuburan Islam", "Agama": "Islam", "Daerah": "Klang", "PBT": "MBDK", "Lokasi": "Meru", "Alamat": "Jalan Haji Abdul Manan, Meru, 42200 Klang, Selangor, Malaysia", "Luas_Hek": 1.5511, "Latitude": 3.147, "Longitude": 101.4485}}, {"type": "Feature", "geometry": {"type": "Point", "coordinates": [101.40345, 3.1624]}, "properties": {"Nama": "Perkuburan Islam Bukit Kapar", "Kategori": "Perkuburan Islam", "Agama": "Islam", "Daerah": "Klang", "PBT": "MBDK", "Lokasi": "Bukit Kapar", "Alamat": "Jalan Pusara, Kampung Bukit Kapar, 42200 Kapar, Selangor, Malaysia", "Luas_Hek": 2.0332, "Latitude": 3.1624, "Longitude": 101.40345}}, {"type": "Feature", "geometry": {"type": "Point", "coordinates": [101.39, 3.187]}, "properties": {"Nama": "Tanah Perkuburan Islam Batu 12", "Kategori": "Perkuburan Islam", "Agama": "Islam", "Daerah": "Klang", "PBT": "MBDK", "Lokasi": "Kampung Tok Muda", "Alamat": "Kampung Tok Muda, 45600 Kapar, Selangor, Malaysia", "Luas_Hek": 0.2492, "Latitude": 3.187, "Longitude": 101.39}}, {"type": "Feature", "geometry": {"type": "Point", "coordinates": [101.551132, 3.0658148]}, "properties": {"Nama": "Tanah Perkuburan Kristian Seksyen 21", "Kategori": "Perkuburan Kristian", "Agama": "Bukan Islam", "Daerah": "Petaling", "PBT": "MBSA", "Lokasi": "Seksyen 21", "Alamat": "Kompleks Perkuburan Bersepadu MBSA, Jalan Pusara 21/1, Seksyen 21, 40300 Shah Alam, Selangor, Malaysia", "Luas_Hek": 0.8082, "Latitude": 3.0658148, "Longitude": 101.551132}}, {"type": "Feature", "geometry": {"type": "Point", "coordinates": [101.5415, 3.0035]}, "properties": {"Nama": "Tanah Perkuburan Islam Seksyen 31", "Kategori": "Perkuburan Islam", "Agama": "Islam", "Daerah": "Klang", "PBT": "MBSA", "Lokasi": "Seksyen 31", "Alamat": "Lot 131193, Tanah Perkuburan Islam Kota Kemuning, No. 5, Jalan Anggerik Tainia 31/122, Seksyen 31, 40460 Shah Alam, Selangor, Malaysia", "Luas_Hek": 4.9864, "Latitude": 3.0035, "Longitude": 101.5415}}, {"type": "Feature", "geometry": {"type": "Point", "coordinates": [101.443202, 3.034199]}, "properties": {"Nama": "Tanah Perkuburan India Simpang Lima Klang", "Kategori": "Perkuburan Hindu", "Agama": "Bukan Islam", "Daerah": "Klang", "PBT": "MBDK", "Lokasi": "Simpang Lima", "Alamat": "Jalan Bukit Kubur, Kawasan 1, 41200 Klang, Selangor, Malaysia", "Luas_Hek": 6.7648, "Latitude": 3.034199, "Longitude": 101.443202}}, {"type": "Feature", "geometry": {"type": "Point", "coordinates": [101.379, 3.137]}, "properties": {"Nama": "Hindu Crematorium Kapar", "Kategori": "Krematorium/Dewan Pengurusan Mayat", "Agama": "Bukan Islam", "Daerah": "Klang", "PBT": "MBDK", "Lokasi": "Kapar", "Alamat": "Jalan Kapar, Kampung Perepat, 42200 Kapar, Selangor, Malaysia", "Luas_Hek": 1.6472, "Latitude": 3.137, "Longitude": 101.379}}, {"type": "Feature", "geometry": {"type": "Point", "coordinates": [101.45742, 3.13611]}, "properties": {"Nama": "Klang Christian Cemetery", "Kategori": "Perkuburan Kristian", "Agama": "Bukan Islam", "Daerah": "Klang", "PBT": "MBDK", "Lokasi": "Klang / Bukit Raja", "Alamat": "Klang, Selangor, Malaysia", "Luas_Hek": 5.193, "Latitude": 3.13611, "Longitude": 101.45742}}, {"type": "Feature", "geometry": {"type": "Point", "coordinates": [101.46174, 3.14849]}, "properties": {"Nama": "Fairy Park Crematorium", "Kategori": "Krematorium/Dewan Pengurusan Mayat", "Agama": "Bukan Islam", "Daerah": "Klang", "PBT": "MBDK", "Lokasi": "Meru", "Alamat": "Lot 3881-1, Jalan Kemboja, off Jalan Paip, Kampung Haji Mohd Shariff, Meru, 41050 Klang, Selangor, Malaysia", "Luas_Hek": 26.0379, "Latitude": 3.14849, "Longitude": 101.46174}}, {"type": "Feature", "geometry": {"type": "Point", "coordinates": [101.42206, 3.2049]}, "properties": {"Nama": "Nirvana Memorial Park (Klang)", "Kategori": "Perkuburan Lain", "Agama": "Bukan Islam", "Daerah": "Klang", "PBT": "MBDK", "Lokasi": "Klang", "Alamat": "Nirvana Memorial Park Klang, Klang District, Selangor, Malaysia", "Luas_Hek": 69.9825, "Latitude": 3.2049, "Longitude": 101.42206}}, {"type": "Feature", "geometry": {"type": "Point", "coordinates": [101.53171, 3.06591]}, "properties": {"Nama": "Persatuan Hokkien Klang Cemetery (Sungai Rengam)", "Kategori": "Perkuburan Buddha/Tao", "Agama": "Bukan Islam", "Daerah": "Klang", "PBT": "MBDK", "Lokasi": "Sungai Rengam", "Alamat": "Perkuburan Persatuan Hokkien Klang (Sungai Rengam), Shah Alam / Sungai Rengam, Selangor, Malaysia", "Luas_Hek": 4.8975, "Latitude": 3.06591, "Longitude": 101.53171}}, {"type": "Feature", "geometry": {"type": "Point", "coordinates": [101.443202, 3.034199]}, "properties": {"Nama": "Hindu Crematorium Simpang Lima", "Kategori": "Krematorium/Dewan Pengurusan Mayat", "Agama": "Bukan Islam", "Daerah": "Klang", "PBT": "MBDK", "Lokasi": "Simpang Lima", "Alamat": "Jalan Bukit Kubur, Kawasan 1, 41200 Klang, Selangor, Malaysia", "Luas_Hek": 0.2674, "Latitude": 3.034199, "Longitude": 101.443202}}, {"type": "Feature", "geometry": {"type": "Point", "coordinates": [101.70292, 3.25828]}, "properties": {"Nama": "Tanah Perkuburan Islam Masjid Al-Khairiyah, Taman Sri Gombak", "Kategori": "Perkuburan Islam", "Agama": "Islam", "Daerah": "Gombak", "PBT": "MPS", "Lokasi": "Taman Sri Gombak", "Alamat": "1, Jalan Bukit Permata, Taman Bukit Permata, 68100 Batu Caves, Selangor, Malaysia", "Luas_Hek": 1.7307, "Latitude": 3.25828, "Longitude": 101.70292}}, {"type": "Feature", "geometry": {"type": "Point", "coordinates": [101.74441, 3.2512]}, "properties": {"Nama": "Tanah Perkuburan Islam Jalan Sungai Pusu", "Kategori": "Perkuburan Islam", "Agama": "Islam", "Daerah": "Gombak", "PBT": "MPS", "Lokasi": "Batu 8 Gombak", "Alamat": "Jalan Sungai Pusu, Batu 8 Gombak, 53100 Kuala Lumpur, Selangor, Malaysia", "Luas_Hek": 2.5942, "Latitude": 3.2512, "Longitude": 101.74441}}, {"type": "Feature", "geometry": {"type": "Point", "coordinates": [101.727, 3.244]}, "properties": {"Nama": "Tanah Perkuburan Islam Kampung Changkat Gombak", "Kategori": "Perkuburan Islam", "Agama": "Islam", "Daerah": "Gombak", "PBT": "MPS", "Lokasi": "Kampung Changkat", "Alamat": "Kampung Changkat, 53100 Kuala Lumpur, Selangor, Malaysia", "Luas_Hek": 1.418, "Latitude": 3.244, "Longitude": 101.727}}, {"type": "Feature", "geometry": {"type": "Point", "coordinates": [101.72359, 3.24939]}, "properties": {"Nama": "Tanah Perkuburan Islam Batu 8 Kg. Gombak Utara", "Kategori": "Perkuburan Islam", "Agama": "Islam", "Daerah": "Gombak", "PBT": "MPS", "Lokasi": "Batu 8 Gombak Utara", "Alamat": "Jalan Gombak, Batu 8, 53000 Kuala Lumpur, Selangor, Malaysia", "Luas_Hek": 0.5803, "Latitude": 3.24939, "Longitude": 101.72359}}, {"type": "Feature", "geometry": {"type": "Point", "coordinates": [101.63908, 3.25492]}, "properties": {"Nama": "Tanah Perkuburan Islam Bukit Lagong", "Kategori": "Perkuburan Islam", "Agama": "Islam", "Daerah": "Gombak", "PBT": "MPS", "Lokasi": "Bukit Lagong", "Alamat": "Taman Bukit Idaman, 68100 Batu Caves, Selangor, Malaysia", "Luas_Hek": 1.22, "Latitude": 3.25492, "Longitude": 101.63908}}, {"type": "Feature", "geometry": {"type": "Point", "coordinates": [101.7036, 3.259]}, "properties": {"Nama": "Tanah Perkuburan Islam Bukit Permata", "Kategori": "Perkuburan Islam", "Agama": "Islam", "Daerah": "Gombak", "PBT": "MPS", "Lokasi": "Bukit Permata", "Alamat": "Jalan BP 11, 68100 Batu Caves, Selangor, Malaysia", "Luas_Hek": 10.8121, "Latitude": 3.259, "Longitude": 101.7036}}, {"type": "Feature", "geometry": {"type": "Point", "coordinates": [101.58193, 3.33968]}, "properties": {"Nama": "Tanah Perkuburan Islam Kampung Sungai Choh", "Kategori": "Perkuburan Islam", "Agama": "Islam", "Daerah": "Gombak", "PBT": "MPS", "Lokasi": "Sungai Choh / Rawang", "Alamat": "Kawasan Industri Bukit Rawang Jaya, 48200 Rawang, Selangor, Malaysia", "Luas_Hek": 1.9689, "Latitude": 3.33968, "Longitude": 101.58193}}, {"type": "Feature", "geometry": {"type": "Point", "coordinates": [101.574, 3.337]}, "properties": {"Nama": "Tanah Perkuburan Islam Sungai Garing", "Kategori": "Perkuburan Islam", "Agama": "Islam", "Daerah": "Gombak", "PBT": "MPS", "Lokasi": "Rawang", "Alamat": "3, Jalan Sri Rawang 8, Taman Sri Rawang, 48000 Rawang, Selangor, Malaysia", "Luas_Hek": 2.0345, "Latitude": 3.337, "Longitude": 101.574}}, {"type": "Feature", "geometry": {"type": "Point", "coordinates": [101.4805, 3.3179]}, "properties": {"Nama": "Tanah Perkuburan Islam Batu Arang", "Kategori": "Perkuburan Islam", "Agama": "Islam", "Daerah": "Gombak", "PBT": "MPS", "Lokasi": "Batu Arang", "Alamat": "Batu Arang, Selangor, Malaysia", "Luas_Hek": 1.2837, "Latitude": 3.3179, "Longitude": 101.4805}}, {"type": "Feature", "geometry": {"type": "Point", "coordinates": [101.774, 3.1665]}, "properties": {"Nama": "Ampang/Ulu Kelang Hindu Cemetery", "Kategori": "Perkuburan Hindu", "Agama": "Bukan Islam", "Daerah": "Gombak", "PBT": "MPAJ", "Lokasi": "Ukay Heights / Hulu Kelang", "Alamat": "Jalan Kolam Ayer Lama / Jalan Kerja Ayer Lama, Hulu Kelang, 68000 Ampang Jaya, Selangor, Malaysia", "Luas_Hek": 7.7544, "Latitude": 3.1665, "Longitude": 101.774}}, {"type": "Feature", "geometry": {"type": "Point", "coordinates": [101.479, 3.318]}, "properties": {"Nama": "Tanah Perkuburan India (Hindu) Batu Arang", "Kategori": "Perkuburan Hindu", "Agama": "Bukan Islam", "Daerah": "Gombak", "PBT": "MPS", "Lokasi": "Batu Arang", "Alamat": "PT 4699, Jalan DPP, 48100 Batu Arang, Selangor, Malaysia", "Luas_Hek": 0.6775, "Latitude": 3.318, "Longitude": 101.479}}, {"type": "Feature", "geometry": {"type": "Point", "coordinates": [101.638, 3.251]}, "properties": {"Nama": "Bukit Lagong Chinese Cemetery", "Kategori": "Perkuburan Buddha/Tao", "Agama": "Bukan Islam", "Daerah": "Gombak", "PBT": "MPS", "Lokasi": "Bukit Lagong", "Alamat": "47000 Selangor, Malaysia", "Luas_Hek": 3.2929, "Latitude": 3.251, "Longitude": 101.638}}, {"type": "Feature", "geometry": {"type": "Point", "coordinates": [101.638, 3.251]}, "properties": {"Nama": "Bukit Lagong Chinese Cemetery", "Kategori": "Perkuburan Buddha/Tao", "Agama": "Bukan Islam", "Daerah": "Gombak", "PBT": "MPS", "Lokasi": "Bukit Lagong", "Alamat": "47000 Selangor, Malaysia", "Luas_Hek": 3.31, "Latitude": 3.251, "Longitude": 101.638}}, {"type": "Feature", "geometry": {"type": "Point", "coordinates": [101.585, 3.322]}, "properties": {"Nama": "Rawang Christian Cemetery", "Kategori": "Perkuburan Kristian", "Agama": "Bukan Islam", "Daerah": "Gombak", "PBT": "MPS", "Lokasi": "Rawang", "Alamat": "Kawasan Industri Rawang Perdana, 48000 Rawang, Selangor, Malaysia", "Luas_Hek": 25.8982, "Latitude": 3.322, "Longitude": 101.585}}, {"type": "Feature", "geometry": {"type": "Point", "coordinates": [101.584, 3.3225]}, "properties": {"Nama": "Jalan Chinese Cemetery (Rawang area)", "Kategori": "Perkuburan Buddha/Tao", "Agama": "Bukan Islam", "Daerah": "Gombak", "PBT": "MPS", "Lokasi": "Rawang", "Alamat": "Kawasan Industri Rawang Perdana, 48000 Rawang, Selangor, Malaysia", "Luas_Hek": 2.1956, "Latitude": 3.3225, "Longitude": 101.584}}, {"type": "Feature", "geometry": {"type": "Point", "coordinates": [101.79, 3.007]}, "properties": {"Nama": "Sungai Kantan Kajang Islamic Cemetery", "Kategori": "Perkuburan Islam", "Agama": "Islam", "Daerah": "Hulu Langat", "PBT": "MPKJ", "Lokasi": "Sungai Kantan", "Alamat": "Jalan Padang Tembak, Kampung Sungai Kantan, 43000 Kajang, Selangor, Malaysia", "Luas_Hek": 2.0236, "Latitude": 3.007, "Longitude": 101.79}}, {"type": "Feature", "geometry": {"type": "Point", "coordinates": [101.838, 3.145]}, "properties": {"Nama": "Tanah Perkuburan Islam Dusun Tua", "Kategori": "Perkuburan Islam", "Agama": "Islam", "Daerah": "Hulu Langat", "PBT": "MPKJ", "Lokasi": "Dusun Tua", "Alamat": "43100 Hulu Langat, Selangor, Malaysia", "Luas_Hek": 1.3201, "Latitude": 3.145, "Longitude": 101.838}}, {"type": "Feature", "geometry": {"type": "Point", "coordinates": [101.831, 3.126]}, "properties": {"Nama": "Tanah Perkuburan Islam Kampung Jawa", "Kategori": "Perkuburan Islam", "Agama": "Islam", "Daerah": "Hulu Langat", "PBT": "MPKJ", "Lokasi": "Kampung Jawa", "Alamat": "Jalan Sungai Lui, Kampung Jawa, 43100 Hulu Langat, Selangor, Malaysia", "Luas_Hek": 0.5106, "Latitude": 3.126, "Longitude": 101.831}}, {"type": "Feature", "geometry": {"type": "Point", "coordinates": [101.8007, 3.09906]}, "properties": {"Nama": "Tanah Perkuburan Islam Kampung Sungai Serai", "Kategori": "Perkuburan Islam", "Agama": "Islam", "Daerah": "Hulu Langat", "PBT": "MPKJ", "Lokasi": "Sungai Serai", "Alamat": "Taman Perkasa, 43100 Hulu Langat, Selangor, Malaysia", "Luas_Hek": 2.0582, "Latitude": 3.09906, "Longitude": 101.8007}}, {"type": "Feature", "geometry": {"type": "Point", "coordinates": [101.795, 3.033]}, "properties": {"Nama": "Tanah Perkuburan Islam Sungai Long", "Kategori": "Perkuburan Islam", "Agama": "Islam", "Daerah": "Hulu Langat", "PBT": "MPKJ", "Lokasi": "Sungai Long", "Alamat": "43100 Hulu Langat, Selangor, Malaysia", "Luas_Hek": 2.9449, "Latitude": 3.033, "Longitude": 101.795}}, {"type": "Feature", "geometry": {"type": "Point", "coordinates": [101.814, 3.113]}, "properties": {"Nama": "Tanah Perkuburan Islam Kariah Masjid Batu 14", "Kategori": "Perkuburan Islam", "Agama": "Islam", "Daerah": "Hulu Langat", "PBT": "MPKJ", "Lokasi": "Batu 14 Hulu Langat", "Alamat": "No. 35, Jalan 1/3, Taman Impian Langat, 43100 Hulu Langat, Selangor, Malaysia", "Luas_Hek": 2.7194, "Latitude": 3.113, "Longitude": 101.814}}, {"type": "Feature", "geometry": {"type": "Point", "coordinates": [101.845, 3.136]}, "properties": {"Nama": "Tanah Perkuburan Islam Sungai Tekali", "Kategori": "Perkuburan Islam", "Agama": "Islam", "Daerah": "Hulu Langat", "PBT": "MPKJ", "Lokasi": "Sungai Tekali", "Alamat": "2469, Jalan Sungai Tekali, 43100 Hulu Langat, Selangor, Malaysia", "Luas_Hek": 2.1757, "Latitude": 3.136, "Longitude": 101.845}}, {"type": "Feature", "geometry": {"type": "Point", "coordinates": [101.87769, 3.20949]}, "properties": {"Nama": "Tanah Perkuburan Islam Kariah Kuala Perdik", "Kategori": "Perkuburan Islam", "Agama": "Islam", "Daerah": "Hulu Langat", "PBT": "MPKJ", "Lokasi": "Kuala Perdik", "Alamat": "Kampung Kuala Perdik, 43100 Hulu Langat, Selangor, Malaysia", "Luas_Hek": 4.0964, "Latitude": 3.20949, "Longitude": 101.87769}}, {"type": "Feature", "geometry": {"type": "Point", "coordinates": [101.787, 2.925]}, "properties": {"Nama": "Tanah Perkuburan Islam Kg Batu 3 Jalan Bangi-Semenyih", "Kategori": "Perkuburan Islam", "Agama": "Islam", "Daerah": "Hulu Langat", "PBT": "MPKJ", "Lokasi": "Batu 3 / Bangi-Semenyih", "Alamat": "Lorong Kubur, Jalan Bangi, Kampung Batu Dua, 43500 Kajang, Selangor, Malaysia", "Luas_Hek": 2.2252, "Latitude": 2.925, "Longitude": 101.787}}, {"type": "Feature", "geometry": {"type": "Point", "coordinates": [101.79939, 2.94229]}, "properties": {"Nama": "Tanah Perkuburan Islam Bandar Baru Bangi (Sg Tangkas)", "Kategori": "Perkuburan Islam", "Agama": "Islam", "Daerah": "Hulu Langat", "PBT": "MPKJ", "Lokasi": "Sungai Tangkas / Bandar Baru Bangi", "Alamat": "Jalan Reko / Sungai Tangkas, 43000 Kajang, Selangor, Malaysia", "Luas_Hek": 3.9156, "Latitude": 2.94229, "Longitude": 101.79939}}, {"type": "Feature", "geometry": {"type": "Point", "coordinates": [101.851, 2.951]}, "properties": {"Nama": "Tanah Perkuburan Islam Kampung Rinching Ulu", "Kategori": "Perkuburan Islam", "Agama": "Islam", "Daerah": "Hulu Langat", "PBT": "MPKJ", "Lokasi": "Rinching Ulu", "Alamat": "Jalan TPS 2/3, Kampung Rinching Ulu, 43700 Semenyih, Selangor, Malaysia", "Luas_Hek": 1.1693, "Latitude": 2.951, "Longitude": 101.851}}, {"type": "Feature", "geometry": {"type": "Point", "coordinates": [101.826, 2.963]}, "properties": {"Nama": "Tanah Perkuburan Islam Bandar Teknologi Kajang", "Kategori": "Perkuburan Islam", "Agama": "Islam", "Daerah": "Hulu Langat", "PBT": "MPKJ", "Lokasi": "Bandar Teknologi Kajang", "Alamat": "43500 Semenyih, Selangor, Malaysia", "Luas_Hek": 4.3308, "Latitude": 2.963, "Longitude": 101.826}}, {"type": "Feature", "geometry": {"type": "Point", "coordinates": [101.77, 3.03]}, "properties": {"Nama": "Tanah Perkuburan Islam Bukit Dukung", "Kategori": "Perkuburan Islam", "Agama": "Islam", "Daerah": "Hulu Langat", "PBT": "MPKJ", "Lokasi": "Bukit Dukung / Sungai Long", "Alamat": "Persimpangan Bandar Sungai Long, 43200 Kajang, Selangor, Malaysia", "Luas_Hek": 0.8112, "Latitude": 3.03, "Longitude": 101.77}}, {"type": "Feature", "geometry": {"type": "Point", "coordinates": [101.798, 3.066]}, "properties": {"Nama": "Tanah Perkuburan Islam Kampung Melaka", "Kategori": "Perkuburan Islam", "Agama": "Islam", "Daerah": "Hulu Langat", "PBT": "MPKJ", "Lokasi": "Kampung Melaka", "Alamat": "Kampung Melaka, 43200 Cheras, Selangor, Malaysia", "Luas_Hek": 1.7746, "Latitude": 3.066, "Longitude": 101.798}}, {"type": "Feature", "geometry": {"type": "Point", "coordinates": [101.856, 3.184]}, "properties": {"Nama": "Tanah Perkuburan Islam Qariah Sungai Lui", "Kategori": "Perkuburan Islam", "Agama": "Islam", "Daerah": "Hulu Langat", "PBT": "MPKJ", "Lokasi": "Sungai Lui / Sungai Pagoh", "Alamat": "Jalan Sungai Lui, Kampung Sungai Pagoh, 43100 Hulu Langat, Selangor, Malaysia", "Luas_Hek": 1.3784, "Latitude": 3.184, "Longitude": 101.856}}, {"type": "Feature", "geometry": {"type": "Point", "coordinates": [101.807701, 3.1086416]}, "properties": {"Nama": "Tanah Perkuburan Islam Dusun Nanding", "Kategori": "Perkuburan Islam", "Agama": "Islam", "Daerah": "Hulu Langat", "PBT": "MPKJ", "Lokasi": "Nanding", "Alamat": "Pinggiran Nanding, Kampung Nanding, 43100 Hulu Langat, Selangor, Malaysia", "Luas_Hek": 1.8858, "Latitude": 3.1086416, "Longitude": 101.807701}}, {"type": "Feature", "geometry": {"type": "Point", "coordinates": [101.846, 3.138]}, "properties": {"Nama": "Chinese Cemetery Jalan Sungai Tekali", "Kategori": "Perkuburan Buddha/Tao", "Agama": "Bukan Islam", "Daerah": "Hulu Langat", "PBT": "MPKJ", "Lokasi": "Sungai Tekali / Rantau Panjang", "Alamat": "501, Jalan Sungai Tekali, Kampung Rantau Panjang, 43100 Hulu Langat, Selangor, Malaysia", "Luas_Hek": 1.7467, "Latitude": 3.138, "Longitude": 101.846}}, {"type": "Feature", "geometry": {"type": "Point", "coordinates": [101.813, 3.111]}, "properties": {"Nama": "Chinese Cemetery Batu 14 Hulu Langat", "Kategori": "Perkuburan Buddha/Tao", "Agama": "Bukan Islam", "Daerah": "Hulu Langat", "PBT": "MPKJ", "Lokasi": "Batu 14 Hulu Langat", "Alamat": "Pekan Batu 14 Hulu Langat, 43100 Hulu Langat, Selangor, Malaysia", "Luas_Hek": 0.7166, "Latitude": 3.111, "Longitude": 101.813}}, {"type": "Feature", "geometry": {"type": "Point", "coordinates": [101.79371, 3.00585]}, "properties": {"Nama": "Chinese Cemetery (Kajang)", "Kategori": "Perkuburan Buddha/Tao", "Agama": "Bukan Islam", "Daerah": "Hulu Langat", "PBT": "MPKJ", "Lokasi": "Kajang", "Alamat": "Kajang, Selangor, Malaysia", "Luas_Hek": 8.2537, "Latitude": 3.00585, "Longitude": 101.79371}}, {"type": "Feature", "geometry": {"type": "Point", "coordinates": [101.798, 2.991]}, "properties": {"Nama": "Hindu Crematorium & Cemetery Kajang", "Kategori": "Krematorium/Dewan Pengurusan Mayat", "Agama": "Bukan Islam", "Daerah": "Hulu Langat", "PBT": "MPKJ", "Lokasi": "Kajang", "Alamat": "42, Jalan Damai 2, Taman Damai Indah, 43000 Kajang, Selangor, Malaysia", "Luas_Hek": 4.0913, "Latitude": 2.991, "Longitude": 101.798}}, {"type": "Feature", "geometry": {"type": "Point", "coordinates": [101.845, 2.932]}, "properties": {"Nama": "Tanah Perkuburan Hindu dan Kristian Paling Jaya, Semenyih", "Kategori": "Tempat Perkuburan Bersepadu Bukan Islam", "Agama": "Bukan Islam", "Daerah": "Hulu Langat", "PBT": "MPKJ", "Lokasi": "Semenyih", "Alamat": "Jalan Anggerik Perdana 1, 43500 Semenyih, Selangor, Malaysia", "Luas_Hek": 3.5869, "Latitude": 2.932, "Longitude": 101.845}}, {"type": "Feature", "geometry": {"type": "Point", "coordinates": [101.786, 2.901]}, "properties": {"Nama": "Perkuburan Hindu Bangi Lama", "Kategori": "Perkuburan Hindu", "Agama": "Bukan Islam", "Daerah": "Hulu Langat", "PBT": "MPKJ", "Lokasi": "Bangi Lama", "Alamat": "43000 Kajang, Selangor, Malaysia", "Luas_Hek": 1.6211, "Latitude": 2.901, "Longitude": 101.786}}, {"type": "Feature", "geometry": {"type": "Point", "coordinates": [101.902, 2.94]}, "properties": {"Nama": "Christian Cemetery Broga", "Kategori": "Perkuburan Kristian", "Agama": "Bukan Islam", "Daerah": "Hulu Langat", "PBT": "MPKJ", "Lokasi": "Broga / Semenyih", "Alamat": "Lot 930, Jalan Broga, Broga, 71750 Semenyih, Selangor, Malaysia", "Luas_Hek": 2.0406, "Latitude": 2.94, "Longitude": 101.902}}, {"type": "Feature", "geometry": {"type": "Point", "coordinates": [101.865, 2.924]}, "properties": {"Nama": "Christian Indian Cemetery (Eco Forest)", "Kategori": "Perkuburan Kristian", "Agama": "Bukan Islam", "Daerah": "Hulu Langat", "PBT": "MPKJ", "Lokasi": "Semenyih / Eco Forest", "Alamat": "Lingkaran Eco Forest 1, Selangor, Malaysia", "Luas_Hek": 2.2162, "Latitude": 2.924, "Longitude": 101.865}}, {"type": "Feature", "geometry": {"type": "Point", "coordinates": [101.86243, 3.02305]}, "properties": {"Nama": "Semenyih Memorial Hills", "Kategori": "Perkuburan Lain", "Agama": "Bukan Islam", "Daerah": "Hulu Langat", "PBT": "MPKJ", "Lokasi": "Sungai Lalang / Semenyih", "Alamat": "Batu 26, Jalan Sungai Lalang, 43500 Semenyih, Selangor, Malaysia", "Luas_Hek": 40.0288, "Latitude": 3.02305, "Longitude": 101.86243}}, {"type": "Feature", "geometry": {"type": "Point", "coordinates": [101.7994444, 2.9936111]}, "properties": {"Nama": "Tian Ning Columbarium", "Kategori": "Kolumbarium", "Agama": "Bukan Islam", "Daerah": "Hulu Langat", "PBT": "MPKJ", "Lokasi": "Kajang / Sungai Jelok", "Alamat": "Jalan Pusat Perniagaan 3, Pusat Perniagaan Sungai Jelok, 43000 Kajang, Selangor, Malaysia", "Luas_Hek": 0.3752, "Latitude": 2.9936111, "Longitude": 101.7994444}}, {"type": "Feature", "geometry": {"type": "Point", "coordinates": [101.802, 2.995]}, "properties": {"Nama": "Jing An Memorial Village", "Kategori": "Perkuburan Lain", "Agama": "Bukan Islam", "Daerah": "Hulu Langat", "PBT": "MPKJ", "Lokasi": "Sungai Chua", "Alamat": "Lot 930, Jalan 7/1, Sungai Chua, 43000 Kajang, Selangor, Malaysia", "Luas_Hek": 2.7334, "Latitude": 2.995, "Longitude": 101.802}}, {"type": "Feature", "geometry": {"type": "Point", "coordinates": [101.7555, 2.69918]}, "properties": {"Nama": "Tanah Perkuburan Islam Pekan Sepang", "Kategori": "Perkuburan Islam", "Agama": "Islam", "Daerah": "Sepang", "PBT": "MPSp", "Lokasi": "Pekan Sepang", "Alamat": "Pekan Sepang, 43900 Sepang, Selangor, Malaysia", "Luas_Hek": 0.7459, "Latitude": 2.69918, "Longitude": 101.7555}}, {"type": "Feature", "geometry": {"type": "Point", "coordinates": [101.724, 2.65]}, "properties": {"Nama": "Tanah Perkuburan Islam Kampung Hulu Chuchoh + hutan", "Kategori": "Perkuburan Islam", "Agama": "Islam", "Daerah": "Sepang", "PBT": "MPSp", "Lokasi": "Hulu Chuchoh", "Alamat": "43950 Sepang, Selangor, Malaysia", "Luas_Hek": 3.215, "Latitude": 2.65, "Longitude": 101.724}}, {"type": "Feature", "geometry": {"type": "Point", "coordinates": [101.612, 2.884]}, "properties": {"Nama": "Tanah Perkuburan Islam Taman Putra Perdana", "Kategori": "Perkuburan Islam", "Agama": "Islam", "Daerah": "Sepang", "PBT": "MPSp", "Lokasi": "Taman Putra Perdana", "Alamat": "Jalan Putra Perdana 3A, Taman Putra Perdana, 47130 Puchong, Selangor, Malaysia", "Luas_Hek": 1.7589, "Latitude": 2.884, "Longitude": 101.612}}, {"type": "Feature", "geometry": {"type": "Point", "coordinates": [101.62, 2.966]}, "properties": {"Nama": "Tanah Perkuburan Islam Kampung Pulau Meranti", "Kategori": "Perkuburan Islam", "Agama": "Islam", "Daerah": "Sepang", "PBT": "MPSp", "Lokasi": "Pulau Meranti", "Alamat": "Jalan Meranti 2, Kampung Pulau Meranti, 47100 Puchong, Selangor, Malaysia", "Luas_Hek": 1.5607, "Latitude": 2.966, "Longitude": 101.62}}, {"type": "Feature", "geometry": {"type": "Point", "coordinates": [101.697, 2.831]}, "properties": {"Nama": "Perkuburan Islam Kg Baru Lanjut", "Kategori": "Perkuburan Islam", "Agama": "Islam", "Daerah": "Sepang", "PBT": "MPSp", "Lokasi": "Kampung Baharu Lanjut", "Alamat": "17, Jalan Salak Setia 2, Kampung Baharu Lanjut, 43900 Sepang, Selangor, Malaysia", "Luas_Hek": 1.0293, "Latitude": 2.831, "Longitude": 101.697}}, {"type": "Feature", "geometry": {"type": "Point", "coordinates": [101.74698, 2.69102]}, "properties": {"Nama": "Tanah Perkuburan Cina Sepang", "Kategori": "Perkuburan Buddha/Tao", "Agama": "Bukan Islam", "Daerah": "Sepang", "PBT": "MPSp", "Lokasi": "Pekan Sepang", "Alamat": "Pekan Sepang, Sepang, Selangor, Malaysia", "Luas_Hek": 6.5233, "Latitude": 2.69102, "Longitude": 101.74698}}, {"type": "Feature", "geometry": {"type": "Point", "coordinates": [101.74698, 2.69102]}, "properties": {"Nama": "Sepang Chinese Cemeteries", "Kategori": "Perkuburan Buddha/Tao", "Agama": "Bukan Islam", "Daerah": "Sepang", "PBT": "MPSp", "Lokasi": "Kampung Baru Sepang Jaya", "Alamat": "12, Jalan 7, Kampung Baru Sepang Jaya, 43900 Sepang, Selangor, Malaysia", "Luas_Hek": 5.9604, "Latitude": 2.69102, "Longitude": 101.74698}}, {"type": "Feature", "geometry": {"type": "Point", "coordinates": [101.74698, 2.69102]}, "properties": {"Nama": "Sepang Chinese Cemeteries", "Kategori": "Perkuburan Buddha/Tao", "Agama": "Bukan Islam", "Daerah": "Sepang", "PBT": "MPSp", "Lokasi": "Kampung Baru Sepang Jaya", "Alamat": "12, Jalan 7, Kampung Baru Sepang Jaya, 43900 Sepang, Selangor, Malaysia", "Luas_Hek": 1.956, "Latitude": 2.69102, "Longitude": 101.74698}}, {"type": "Feature", "geometry": {"type": "Point", "coordinates": [101.75, 2.69]}, "properties": {"Nama": "Tapak Perkuburan Hindu, Sepang", "Kategori": "Perkuburan Hindu", "Agama": "Bukan Islam", "Daerah": "Sepang", "PBT": "MPSp", "Lokasi": "Sepang", "Alamat": "Sepang, Selangor, Malaysia", "Luas_Hek": 1.6305, "Latitude": 2.69, "Longitude": 101.75}}, {"type": "Feature", "geometry": {"type": "Point", "coordinates": [101.701, 2.654]}, "properties": {"Nama": "Tanjung Rhu Hindu Cemetery (Thengai Piraddu Mayanam)", "Kategori": "Perkuburan Hindu", "Agama": "Bukan Islam", "Daerah": "Sepang", "PBT": "MPSp", "Lokasi": "Sungai Pelek", "Alamat": "Lot 3345, Jalan 18, Kampung Ulu Tris, 43950 Sungai Pelek, Selangor, Malaysia", "Luas_Hek": 1.3279, "Latitude": 2.654, "Longitude": 101.701}}, {"type": "Feature", "geometry": {"type": "Point", "coordinates": [101.752, 2.695]}, "properties": {"Nama": "Tapak Perkuburan Hindu Lot 114881 Pekan Sepang + hutan", "Kategori": "Perkuburan Hindu", "Agama": "Bukan Islam", "Daerah": "Sepang", "PBT": "MPSp", "Lokasi": "Pekan Sepang", "Alamat": "Lot 114881, Pekan Sepang, Daerah Sepang, Malaysia", "Luas_Hek": 3.8797, "Latitude": 2.695, "Longitude": 101.752}}, {"type": "Feature", "geometry": {"type": "Point", "coordinates": [101.689, 2.861]}, "properties": {"Nama": "Tapak Perkuburan Hindu Plot 99 Kg. Ampar Tenang", "Kategori": "Perkuburan Hindu", "Agama": "Bukan Islam", "Daerah": "Sepang", "PBT": "MPSp", "Lokasi": "Dengkil / Kg. Ampar Tenang", "Alamat": "Plot 99, Kg. Ampar Tenang, Mukim Dengkil, Daerah Sepang, Malaysia", "Luas_Hek": 0.6138, "Latitude": 2.861, "Longitude": 101.689}}, {"type": "Feature", "geometry": {"type": "Point", "coordinates": [101.755, 2.7]}, "properties": {"Nama": "Tapak Perkuburan Wilayah Bersepadu Daerah Sepang Fasa 1", "Kategori": "Tempat Perkuburan Bersepadu Bukan Islam", "Agama": "Bukan Islam", "Daerah": "Sepang", "PBT": "MPSp", "Lokasi": "Mukim Sepang", "Alamat": "Lot 5758, Mukim Sepang, Daerah Sepang, Malaysia", "Luas_Hek": 0.8417, "Latitude": 2.7, "Longitude": 101.755}}, {"type": "Feature", "geometry": {"type": "Point", "coordinates": [101.755, 2.7]}, "properties": {"Nama": "Tapak Perkuburan Wilayah Bersepadu Daerah Sepang Fasa 1", "Kategori": "Tempat Perkuburan Bersepadu Bukan Islam", "Agama": "Bukan Islam", "Daerah": "Sepang", "PBT": "MPSp", "Lokasi": "Mukim Sepang", "Alamat": "Lot 5758, Mukim Sepang, Daerah Sepang, Malaysia", "Luas_Hek": 0.2412, "Latitude": 2.7, "Longitude": 101.755}}, {"type": "Feature", "geometry": {"type": "Point", "coordinates": [101.508, 2.807]}, "properties": {"Nama": "Tanah Perkuburan Islam Banting", "Kategori": "Perkuburan Islam", "Agama": "Islam", "Daerah": "Kuala Langat", "PBT": "MPKL", "Lokasi": "Banting", "Alamat": "Jalan Mangga, Taman Permai, 42700 Banting, Selangor, Malaysia", "Luas_Hek": 6.0376, "Latitude": 2.807, "Longitude": 101.508}}, {"type": "Feature", "geometry": {"type": "Point", "coordinates": [101.53775, 2.8296]}, "properties": {"Nama": "Tanah Perkuburan Islam Kampung Sungai Manggis", "Kategori": "Perkuburan Islam", "Agama": "Islam", "Daerah": "Kuala Langat", "PBT": "MPKL", "Lokasi": "Kampung Sungai Manggis", "Alamat": "Kampung Sungai Manggis, Kuala Langat, Selangor, Malaysia", "Luas_Hek": 4.2475, "Latitude": 2.8296, "Longitude": 101.53775}}, {"type": "Feature", "geometry": {"type": "Point", "coordinates": [101.441, 2.73]}, "properties": {"Nama": "Sri Throbathai Amman Hindu Burial Ground, Morib + hutan", "Kategori": "Perkuburan Hindu", "Agama": "Bukan Islam", "Daerah": "Kuala Langat", "PBT": "MPKL", "Lokasi": "Morib / Kampung Endah", "Alamat": "Kampung Endah, 42700 Banting, Selangor, Malaysia", "Luas_Hek": 0.8665, "Latitude": 2.73, "Longitude": 101.441}}, {"type": "Feature", "geometry": {"type": "Point", "coordinates": [101.251409, 3.358414]}, "properties": {"Nama": "Tanah Perkuburan Islam Kampung Permatang Kuala Selangor", "Kategori": "Perkuburan Islam", "Agama": "Islam", "Daerah": "Kuala Selangor", "PBT": "MPKS", "Lokasi": "Kuala Selangor", "Alamat": "Jalan Permatang, Kampung Permatang, 45000 Kuala Selangor, Selangor", "Luas_Hek": 0.4479, "Latitude": 3.358414, "Longitude": 101.251409}}, {"type": "Feature", "geometry": {"type": "Point", "coordinates": [101.265921, 3.332338]}, "properties": {"Nama": "Tanah Perkuburan Islam Kampung Teluk Piai", "Kategori": "Perkuburan Islam", "Agama": "Islam", "Daerah": "Kuala Selangor", "PBT": "MPKS", "Lokasi": "Kuala Selangor", "Alamat": "39, Jalan Ksj 3, Taman Kuala Selangor Jaya, 45000 Kuala Selangor, Selangor", "Luas_Hek": 0.7813, "Latitude": 3.332338, "Longitude": 101.265921}}, {"type": "Feature", "geometry": {"type": "Point", "coordinates": [101.408874, 3.315485]}, "properties": {"Nama": "Tanah Perkuburan Islam Kampung Ijok", "Kategori": "Perkuburan Islam", "Agama": "Islam", "Daerah": "Kuala Selangor", "PBT": "MPKS", "Lokasi": "Ijok", "Alamat": "Jalan Kubur, Kampung Ijok, 45700 Bestari Jaya, Selangor, Malaysia", "Luas_Hek": 2.0347, "Latitude": 3.315485, "Longitude": 101.408874}}, {"type": "Feature", "geometry": {"type": "Point", "coordinates": [101.474, 3.194]}, "properties": {"Nama": "Tanah Perkuburan Islam Raudhatul 'Aliyah Saujana Utama", "Kategori": "Perkuburan Islam", "Agama": "Islam", "Daerah": "Kuala Selangor", "PBT": "MPKS", "Lokasi": "Bandar Saujana Utama", "Alamat": "Jalan Ar-Raudhah, Bandar Saujana Utama, 47000 Sungai Buloh, Selangor, Malaysia", "Luas_Hek": 21.2663, "Latitude": 3.194, "Longitude": 101.474}}, {"type": "Feature", "geometry": {"type": "Point", "coordinates": [101.43271, 3.21213]}, "properties": {"Nama": "Tanah Perkuburan Islam Bandar Puncak Alam", "Kategori": "Perkuburan Islam", "Agama": "Islam", "Daerah": "Kuala Selangor", "PBT": "MPKS", "Lokasi": "Puncak Alam", "Alamat": "PT 7869, Felda Bukit Cherakah, Bandar Puncak Alam, Selangor, Malaysia", "Luas_Hek": 0.8748, "Latitude": 3.21213, "Longitude": 101.43271}}, {"type": "Feature", "geometry": {"type": "Point", "coordinates": [101.335, 3.423]}, "properties": {"Nama": "Tanah Perkuburan Islam Kampung Teluk Penyamun", "Kategori": "Perkuburan Islam", "Agama": "Islam", "Daerah": "Kuala Selangor", "PBT": "MPKS", "Lokasi": "Teluk Penyamun / Bukit Belimbing", "Alamat": "Kampung Bukit Belimbing, 45000 Kuala Selangor, Selangor, Malaysia", "Luas_Hek": 0.2011, "Latitude": 3.423, "Longitude": 101.335}}, {"type": "Feature", "geometry": {"type": "Point", "coordinates": [101.318197, 3.394968]}, "properties": {"Nama": "Bukit Tangga Chinese Cemetery", "Kategori": "Perkuburan Buddha/Tao", "Agama": "Bukan Islam", "Daerah": "Kuala Selangor", "PBT": "MPKS", "Lokasi": "Jalan Raja Musa,Kuala Selangor", "Alamat": "Jalan Raja Musa, 45500 Kuala Selangor, Selangor", "Luas_Hek": 6.328, "Latitude": 3.394968, "Longitude": 101.318197}}, {"type": "Feature", "geometry": {"type": "Point", "coordinates": [101.41, 3.378]}, "properties": {"Nama": "Kuala Selangor Chinese Cemetery (Old)", "Kategori": "Perkuburan Buddha/Tao", "Agama": "Bukan Islam", "Daerah": "Kuala Selangor", "PBT": "MPKS", "Lokasi": "Bestari Jaya", "Alamat": "45000 Bestari Jaya, Selangor, Malaysia", "Luas_Hek": 10.6988, "Latitude": 3.378, "Longitude": 101.41}}, {"type": "Feature", "geometry": {"type": "Point", "coordinates": [101.275534, 3.408046]}, "properties": {"Nama": "Tanah Perkuburan Hindu Kuala Selangor", "Kategori": "Perkuburan Hindu", "Agama": "Bukan Islam", "Daerah": "Kuala Selangor", "PBT": "MPKS", "Lokasi": "Kuala Selangor", "Alamat": "Jalan Bukit Belimbing, 45500 Kuala Selangor, Selangor", "Luas_Hek": 0.4758, "Latitude": 3.408046, "Longitude": 101.275534}}, {"type": "Feature", "geometry": {"type": "Point", "coordinates": [101.656, 3.56]}, "properties": {"Nama": "Tanah Perkuburan Islam Kuala Kubu Bharu", "Kategori": "Perkuburan Islam", "Agama": "Islam", "Daerah": "Hulu Selangor", "PBT": "MPHS", "Lokasi": "Kuala Kubu Bharu", "Alamat": "Kuala Kubu Road, Kampung Paya, 44000 Kuala Kubu Bharu, Selangor, Malaysia", "Luas_Hek": 2.283, "Latitude": 3.56, "Longitude": 101.656}}, {"type": "Feature", "geometry": {"type": "Point", "coordinates": [101.56, 3.401]}, "properties": {"Nama": "Tanah Perkuburan Islam Bukit Beruntung", "Kategori": "Perkuburan Islam", "Agama": "Islam", "Daerah": "Hulu Selangor", "PBT": "MPHS", "Lokasi": "Bukit Beruntung", "Alamat": "Bukit Beruntung, 48300 Rawang, Selangor, Malaysia", "Luas_Hek": 8.7084, "Latitude": 3.401, "Longitude": 101.56}}, {"type": "Feature", "geometry": {"type": "Point", "coordinates": [101.661, 3.442]}, "properties": {"Nama": "Tanah Perkuburan Islam Masjid Al-Falah Ulu Yam Bharu", "Kategori": "Perkuburan Islam", "Agama": "Islam", "Daerah": "Hulu Selangor", "PBT": "MPHS", "Lokasi": "Ulu Yam Bharu", "Alamat": "Jalan Kaloi 5D, Taman Desa Kaloi, 44300 Batang Kali, Selangor, Malaysia", "Luas_Hek": 1.5351, "Latitude": 3.442, "Longitude": 101.661}}, {"type": "Feature", "geometry": {"type": "Point", "coordinates": [101.655, 3.456]}, "properties": {"Nama": "Tanah Perkuburan Islam Sungai Bertam", "Kategori": "Perkuburan Islam", "Agama": "Islam", "Daerah": "Hulu Selangor", "PBT": "MPHS", "Lokasi": "Batang Kali / Sungai Bertam", "Alamat": "Jalan Sungai Bertam, Taman Seri Cahaya, 44300 Batang Kali, Selangor, Malaysia", "Luas_Hek": 0.7817, "Latitude": 3.456, "Longitude": 101.655}}, {"type": "Feature", "geometry": {"type": "Point", "coordinates": [101.669, 3.455]}, "properties": {"Nama": "Tanah Perkuburan Islam Kg. Batu 30 Ulu Yam", "Kategori": "Perkuburan Islam", "Agama": "Islam", "Daerah": "Hulu Selangor", "PBT": "MPHS", "Lokasi": "Ulu Yam", "Alamat": "Kampung Batu Tiga Puluh, 44200 Batang Kali, Selangor, Malaysia", "Luas_Hek": 2.9644, "Latitude": 3.455, "Longitude": 101.669}}, {"type": "Feature", "geometry": {"type": "Point", "coordinates": [101.606, 3.594]}, "properties": {"Nama": "Tanah Perkuburan Islam Cabang, Hulu Bernam", "Kategori": "Perkuburan Islam", "Agama": "Islam", "Daerah": "Hulu Selangor", "PBT": "MPHS", "Lokasi": "Hulu Bernam / Kerling", "Alamat": "Kampung Ramli, 35900 Kerling, Selangor, Malaysia", "Luas_Hek": 1.4318, "Latitude": 3.594, "Longitude": 101.606}}, {"type": "Feature", "geometry": {"type": "Point", "coordinates": [101.603, 3.594]}, "properties": {"Nama": "Hindu Cemetery Kerling", "Kategori": "Perkuburan Hindu", "Agama": "Bukan Islam", "Daerah": "Hulu Selangor", "PBT": "MPHS", "Lokasi": "Kerling / Kampung Jawa", "Alamat": "Kampung Jawa, 44100 Kuala Kubu Bharu, Selangor, Malaysia", "Luas_Hek": 0.4489, "Latitude": 3.594, "Longitude": 101.603}}, {"type": "Feature", "geometry": {"type": "Point", "coordinates": [101.607, 3.365]}, "properties": {"Nama": "Hindu Crematorium Serendah", "Kategori": "Krematorium/Dewan Pengurusan Mayat", "Agama": "Bukan Islam", "Daerah": "Hulu Selangor", "PBT": "MPHS", "Lokasi": "Serendah", "Alamat": "Kampung Baharu Serendah, 48200 Serendah, Selangor, Malaysia", "Luas_Hek": 0.6251, "Latitude": 3.365, "Longitude": 101.607}}, {"type": "Feature", "geometry": {"type": "Point", "coordinates": [101.052995, 3.746172]}, "properties": {"Nama": "Tanah Perkuburan Islam Pekan Bagan Terap", "Kategori": "Perkuburan Islam", "Agama": "Islam", "Daerah": "Sabak Bernam", "PBT": "MDSB", "Lokasi": "Bagan Terap / Sungai Panjang", "Alamat": "Jalan Parit 1 Badan Terap, Kampung Batu Dua Belas Sungai Panjang, 45300 Sungai Besar, Selangor", "Luas_Hek": 2.0143, "Latitude": 3.746172, "Longitude": 101.052995}}, {"type": "Feature", "geometry": {"type": "Point", "coordinates": [100.996615, 3.794577]}, "properties": {"Nama": "Tanah Perkuburan Islam Kg. Bagan Nira", "Kategori": "Perkuburan Islam", "Agama": "Islam", "Daerah": "Sabak Bernam", "PBT": "MDSB", "Lokasi": "Kampung Batu Satu Sepintas", "Alamat": "Kampung Batu Satu Sepintas, 45200 Sabak, Selangor", "Luas_Hek": 1.1711, "Latitude": 3.794577, "Longitude": 100.996615}}, {"type": "Feature", "geometry": {"type": "Point", "coordinates": [100.970622, 3.676525]}, "properties": {"Nama": "Tanah Perkuburan Islam Kampung Baru Nelayan", "Kategori": "Perkuburan Islam", "Agama": "Islam", "Daerah": "Sabak Bernam", "PBT": "MDSB", "Lokasi": "Sungai Besar", "Alamat": "5197, Jalan Indah 13, Taman Indah, 45300 Sungai Besar, Selangor", "Luas_Hek": 1.0075, "Latitude": 3.676525, "Longitude": 100.970622}}, {"type": "Feature", "geometry": {"type": "Point", "coordinates": [100.988006, 3.7812]}, "properties": {"Nama": "Tanah Perkuburan Islam Bagan Tunjang", "Kategori": "Perkuburan Islam", "Agama": "Islam", "Daerah": "Sabak Bernam", "PBT": "MDSB", "Lokasi": "Bagan Tunjang", "Alamat": "Jalan Kubor, Kg, Jalan Bagan Tunjang, Kampung Bagan Tunjang, 45200 Sabak, Selangor", "Luas_Hek": 0.8357, "Latitude": 3.7812, "Longitude": 100.988006}}, {"type": "Feature", "geometry": {"type": "Point", "coordinates": [101.074778, 3.552495]}, "properties": {"Nama": "Tanah Perkuburan Islam Parit 9", "Kategori": "Perkuburan Islam", "Agama": "Islam", "Daerah": "Sabak Bernam", "PBT": "MDSB", "Lokasi": "Pasir Panjang / Sekinchan", "Alamat": "Jalan Tengah Masjid, Pasir Panjang, 45400 Sekinchan, Selangor\r\nJalan Tengah Masjid, Pasir Panjang, 45400 Sekinchan, Selangor", "Luas_Hek": 2.0038, "Latitude": 3.552495, "Longitude": 101.074778}}, {"type": "Feature", "geometry": {"type": "Point", "coordinates": [100.999613, 3.658389]}, "properties": {"Nama": "Tanah Perkuburan Islam Sg.Lima", "Kategori": "Perkuburan Islam", "Agama": "Islam", "Daerah": "Sabak Bernam", "PBT": "MDSB", "Lokasi": "Sungai Limau", "Alamat": "Kampung Sungai Limau, 45400 Sungai Besar, Selangor", "Luas_Hek": 0.819, "Latitude": 3.658389, "Longitude": 100.999613}}, {"type": "Feature", "geometry": {"type": "Point", "coordinates": [100.943986, 3.780323]}, "properties": {"Nama": "Tapak Tanah Perkuburan Islam Kampung Tebuk Berihun", "Kategori": "Perkuburan Islam", "Agama": "Islam", "Daerah": "Sabak Bernam", "PBT": "MDSB", "Lokasi": "Tebuk Berihun / Dungun", "Alamat": "Kampung Dungun, 45200 Sabak, Selangor", "Luas_Hek": 1.9897, "Latitude": 3.780323, "Longitude": 100.943986}}, {"type": "Feature", "geometry": {"type": "Point", "coordinates": [101.059787, 3.602897]}, "properties": {"Nama": "Tanah Perkuburan Islam Sungai Nibong", "Kategori": "Perkuburan Islam", "Agama": "Islam", "Daerah": "Sabak Bernam", "PBT": "MDSB", "Lokasi": "Sungai Nibong", "Alamat": "Jalan Pusara, Sungai Nibong, 45300 Sungai Besar, Selangor", "Luas_Hek": 2.0446, "Latitude": 3.602897, "Longitude": 101.059787}}, {"type": "Feature", "geometry": {"type": "Point", "coordinates": [100.895526, 3.840514]}, "properties": {"Nama": "Tanah Perkuburan Islam Sungai Air Tawar", "Kategori": "Perkuburan Islam", "Agama": "Islam", "Daerah": "Sabak Bernam", "PBT": "MDSB", "Lokasi": "Sungai Air Tawar", "Alamat": "Kampung Sungai Ayer Tawar, 45100 Sungai Air Tawar, Selangor", "Luas_Hek": 2.7701, "Latitude": 3.840514, "Longitude": 100.895526}}, {"type": "Feature", "geometry": {"type": "Point", "coordinates": [101.097371, 3.497317]}, "properties": {"Nama": "Tanah Perkuburan Islam Masjid Pekan Sekinchan", "Kategori": "Perkuburan Islam", "Agama": "Islam", "Daerah": "Sabak Bernam", "PBT": "MDSB", "Lokasi": "Sekinchan", "Alamat": "Lorong Salam, Kampung Baru Sentosa, 45400 Sekinchan, Selangor, Malaysia", "Luas_Hek": 1.8795, "Latitude": 3.497317, "Longitude": 101.097371}}, {"type": "Feature", "geometry": {"type": "Point", "coordinates": [100.835308, 3.794585]}, "properties": {"Nama": "Tanah Perkuburan Islam Kg Teluk Rhu Sg Apong", "Kategori": "Perkuburan Islam", "Agama": "Islam", "Daerah": "Sabak Bernam", "PBT": "MDSB", "Lokasi": "Sungai Apong / Teluk Rhu", "Alamat": "Kampung Sungai Apong, 45100 Sungai Air Tawar, Selangor", "Luas_Hek": 1.6191, "Latitude": 3.794585, "Longitude": 100.835308}}, {"type": "Feature", "geometry": {"type": "Point", "coordinates": [101.11554, 3.474858]}, "properties": {"Nama": "Tanah Perkuburan Islam Parit 4 Sungai Burong", "Kategori": "Perkuburan Islam", "Agama": "Islam", "Daerah": "Kuala Selangor", "PBT": "MPKS", "Lokasi": "Tanjung Karang", "Alamat": "Tanah perkuburan islam, Kampung Parit Empat, 45400 Tanjung Karang, Selangor", "Luas_Hek": 1.8797, "Latitude": 3.474858, "Longitude": 101.11554}}, {"type": "Feature", "geometry": {"type": "Point", "coordinates": [101.61367, 3.07974]}, "properties": {"Nama": "Tanah Perkuburan Islam Bukit Tandang", "Kategori": "Perkuburan Islam", "Agama": "Islam", "Daerah": "Petaling", "PBT": "MBPJ", "Lokasi": "PJS 5 / PJS 7", "Alamat": "PJS 7 / Bukit Tandang, 47100 Subang Jaya, Selangor, Malaysia", "Luas_Hek": 2.266, "Latitude": 3.07974, "Longitude": 101.61367}}, {"type": "Feature", "geometry": {"type": "Point", "coordinates": [101.4565, 3.0545]}, "properties": {"Nama": "Tanah Perkuburan Islam Bukit Engku Hassan", "Kategori": "Perkuburan Islam", "Agama": "Islam", "Daerah": "Klang", "PBT": "MBDK", "Lokasi": "Bukit Engku Hassan", "Alamat": "Taman Summit, 41300 Klang, Selangor, Malaysia", "Luas_Hek": 0.9167, "Latitude": 3.0545, "Longitude": 101.4565}}, {"type": "Feature", "geometry": {"type": "Point", "coordinates": [101.5505, 3.06778]}, "properties": {"Nama": "Tanah Perkuburan Hindu Seksyen 21", "Kategori": "Perkuburan Hindu", "Agama": "Bukan Islam", "Daerah": "Klang", "PBT": "MBSA", "Lokasi": "Seksyen 21", "Alamat": "Kompleks Perkuburan Bersepadu MBSA, Jalan Pusara 21/1, Seksyen 21, 40300 Shah Alam, Selangor, Malaysia", "Luas_Hek": 2.7202, "Latitude": 3.06778, "Longitude": 101.5505}}, {"type": "Feature", "geometry": {"type": "Point", "coordinates": [101.457, 3.148]}, "properties": {"Nama": "Meru Hindu Cemetery", "Kategori": "Perkuburan Hindu", "Agama": "Bukan Islam", "Daerah": "Klang", "PBT": "MBDK", "Lokasi": "Meru / Bukit Raja", "Alamat": "Bukit Raja, 40170 Selangor, Malaysia", "Luas_Hek": 2.6307, "Latitude": 3.148, "Longitude": 101.457}}, {"type": "Feature", "geometry": {"type": "Point", "coordinates": [101.46174, 3.14849]}, "properties": {"Nama": "Fairy Park Christian Columbarium", "Kategori": "Kolumbarium", "Agama": "Bukan Islam", "Daerah": "Klang", "PBT": "MBDK", "Lokasi": "Kapar / Meru", "Alamat": "Lot 3881-1, Jalan Kemboja, off Jalan Paip, Kampung Haji Mohd Shariff, Meru, 41050 Klang, Selangor, Malaysia", "Luas_Hek": 2.41, "Latitude": 3.14849, "Longitude": 101.46174}}, {"type": "Feature", "geometry": {"type": "Point", "coordinates": [101.46174, 3.14849]}, "properties": {"Nama": "Fairy Park Christian Columbarium", "Kategori": "Kolumbarium", "Agama": "Bukan Islam", "Daerah": "Klang", "PBT": "MBDK", "Lokasi": "Kapar / Meru", "Alamat": "Lot 3881-1, Jalan Kemboja, off Jalan Paip, Kampung Haji Mohd Shariff, Meru, 41050 Klang, Selangor, Malaysia", "Luas_Hek": 2.8159, "Latitude": 3.14849, "Longitude": 101.46174}}, {"type": "Feature", "geometry": {"type": "Point", "coordinates": [101.46174, 3.14849]}, "properties": {"Nama": "Fairy Park Christian Columbarium", "Kategori": "Kolumbarium", "Agama": "Bukan Islam", "Daerah": "Klang", "PBT": "MBDK", "Lokasi": "Kapar / Meru", "Alamat": "Lot 3881-1, Jalan Kemboja, off Jalan Paip, Kampung Haji Mohd Shariff, Meru, 41050 Klang, Selangor, Malaysia", "Luas_Hek": 1.9957, "Latitude": 3.14849, "Longitude": 101.46174}}, {"type": "Feature", "geometry": {"type": "Point", "coordinates": [101.505, 2.81]}, "properties": {"Nama": "Sg. Sedu Christian Cemetery", "Kategori": "Perkuburan Kristian", "Agama": "Bukan Islam", "Daerah": "Kuala Langat", "PBT": "MPKL", "Lokasi": "Sungai Sedu / Banting", "Alamat": "73, Jalan Klang-Banting, Kampung Serdang Belah, 42700 Banting, Selangor, Malaysia", "Luas_Hek": 1.1609, "Latitude": 2.81, "Longitude": 101.505}}, {"type": "Feature", "geometry": {"type": "Point", "coordinates": [101.636, 3.48]}, "properties": {"Nama": "Tanah Perkuburan Islam Kariah Sungai Masin", "Kategori": "Perkuburan Islam", "Agama": "Islam", "Daerah": "Hulu Selangor", "PBT": "MPHS", "Lokasi": "Sungai Masin / Genting Malek", "Alamat": "Kampung Genting Malek, 44200 Batang Kali, Selangor, Malaysia", "Luas_Hek": 1.1172, "Latitude": 3.48, "Longitude": 101.636}}, {"type": "Feature", "geometry": {"type": "Point", "coordinates": [101.442, 3.688]}, "properties": {"Nama": "Tanah Perkuburan Islam Felda Soeharto", "Kategori": "Perkuburan Islam", "Agama": "Islam", "Daerah": "Hulu Selangor", "PBT": "MPHS", "Lokasi": "Felda Soeharto", "Alamat": "Sungai Dusun, 44020 Kuala Kubu Bharu, Selangor, Malaysia", "Luas_Hek": 1.2384, "Latitude": 3.688, "Longitude": 101.442}}, {"type": "Feature", "geometry": {"type": "Point", "coordinates": [100.926203, 3.728944]}, "properties": {"Nama": "Tanah Perkuburan Cina Sungai Pulai", "Kategori": "Perkuburan Buddha/Tao", "Agama": "Bukan Islam", "Daerah": "Sabak Bernam", "PBT": "MDSB", "Lokasi": "Sungai Pulai / Kampung Sekendi", "Alamat": "Jalan Sem Bernam 2, Kampung Sekendi, 45200 Sabak, Selangor", "Luas_Hek": 1.8929, "Latitude": 3.728944, "Longitude": 100.926203}}, {"type": "Feature", "geometry": {"type": "Point", "coordinates": [101.54784, 3.34967]}, "properties": {"Nama": "Rawang Memorial Park", "Kategori": "Perkuburan Lain", "Agama": "Bukan Islam", "Daerah": "Gombak", "PBT": "MPS", "Lokasi": "Sungai Choh / Rawang", "Alamat": "Lot 2816, Jalan Sungai Buaya, Sungai Choh, 48000 Rawang, Selangor, Malaysia", "Luas_Hek": 39.3601, "Latitude": 3.34967, "Longitude": 101.54784}}, {"type": "Feature", "geometry": {"type": "Point", "coordinates": [101.54784, 3.34967]}, "properties": {"Nama": "Rawang Memorial Park", "Kategori": "Perkuburan Lain", "Agama": "Bukan Islam", "Daerah": "Gombak", "PBT": "MPS", "Lokasi": "Sungai Choh / Rawang", "Alamat": "Lot 2816, Jalan Sungai Buaya, Sungai Choh, 48000 Rawang, Selangor, Malaysia", "Luas_Hek": 39.3601, "Latitude": 3.34967, "Longitude": 101.54784}}, {"type": "Feature", "geometry": {"type": "Point", "coordinates": [101.54784, 3.34967]}, "properties": {"Nama": "Rawang Memorial Park", "Kategori": "Perkuburan Lain", "Agama": "Bukan Islam", "Daerah": "Gombak", "PBT": "MPS", "Lokasi": "Sungai Choh / Rawang", "Alamat": "Lot 2816, Jalan Sungai Buaya, Sungai Choh, 48000 Rawang, Selangor, Malaysia", "Luas_Hek": 39.3601, "Latitude": 3.34967, "Longitude": 101.54784}}, {"type": "Feature", "geometry": {"type": "Point", "coordinates": [101.766, 3.054]}, "properties": {"Nama": "Tanah Perkuburan Hindu Batu 11 Jalan Cheras Kajang", "Kategori": "Perkuburan Hindu", "Agama": "Bukan Islam", "Daerah": "Hulu Langat", "PBT": "MPKJ", "Lokasi": "Batu 11 Cheras / Kajang", "Alamat": "43000 Kajang, Selangor, Malaysia", "Luas_Hek": 2.9563, "Latitude": 3.054, "Longitude": 101.766}}, {"type": "Feature", "geometry": {"type": "Point", "coordinates": [101.8712306, 3.0508389]}, "properties": {"Nama": "Nirvana Memorial Garden Semenyih", "Kategori": "Perkuburan Lain", "Agama": "Bukan Islam", "Daerah": "Hulu Langat", "PBT": "MPKJ", "Lokasi": "Sungai Lalang / Semenyih", "Alamat": "Lot 1170, Batu 30, Jalan Sungai Lalang, 43500 Semenyih, Selangor, Malaysia", "Luas_Hek": 108.3623, "Latitude": 3.0508389, "Longitude": 101.8712306}}, {"type": "Feature", "geometry": {"type": "Point", "coordinates": [101.8712306, 3.0508389]}, "properties": {"Nama": "Nirvana Memorial Park Semenyih", "Kategori": "Perkuburan Lain", "Agama": "Bukan Islam", "Daerah": "Hulu Langat", "PBT": "MPKJ", "Lokasi": "Sungai Lalang / Semenyih", "Alamat": "Lot 1170, Batu 30, Jalan Sungai Lalang, 43500 Semenyih, Selangor, Malaysia", "Luas_Hek": 124.1477, "Latitude": 3.0508389, "Longitude": 101.8712306}}, {"type": "Feature", "geometry": {"type": "Point", "coordinates": [101.87769, 3.20949]}, "properties": {"Nama": "Tanah Perkuburan Islam Kariah Kuala Pangsoon", "Kategori": "Perkuburan Islam", "Agama": "Islam", "Daerah": "Hulu Langat", "PBT": "MPKJ", "Lokasi": "Kuala Pangsoon", "Alamat": "Kampung Kuala Pangsoon, 43100 Hulu Langat, Selangor, Malaysia", "Luas_Hek": 1.2033, "Latitude": 3.20949, "Longitude": 101.87769}}, {"type": "Feature", "geometry": {"type": "Point", "coordinates": [101.653, 3.468]}, "properties": {"Nama": "Tanah Perkuburan Islam Taman Seri Batang Kali", "Kategori": "Perkuburan Islam", "Agama": "Islam", "Daerah": "Hulu Selangor", "PBT": "MPHS", "Lokasi": "Batang Kali", "Alamat": "Pekan Batang Kali, 44300 Batang Kali, Selangor, Malaysia", "Luas_Hek": 5.0946, "Latitude": 3.468, "Longitude": 101.653}}, {"type": "Feature", "geometry": {"type": "Point", "coordinates": [100.975938, 3.722836]}, "properties": {"Nama": "Tanan Perkuburan Islam Kg Tebuk Pulai", "Kategori": "Perkuburan Islam", "Agama": "Islam", "Daerah": "Sabak Bernam", "PBT": "MDSB", "Lokasi": "Tebuk Pulai", "Alamat": "Jalan Angsana, Kampung Tebuk Pulai, 45400 Sungai Besar, Selangor, Malaysia", "Luas_Hek": 2.0442, "Latitude": 3.722836, "Longitude": 100.975938}}, {"type": "Feature", "geometry": {"type": "Point", "coordinates": [101.51885, 3.14926]}, "properties": {"Nama": "Subang Lutheran Garden", "Kategori": "Perkuburan Kristian", "Agama": "Bukan Islam", "Daerah": "Petaling", "PBT": "MBSA", "Lokasi": "Seksyen U9", "Alamat": "Jalan Jingga U9/39, Seksyen U9, 40150 Shah Alam, Selangor, Malaysia", "Luas_Hek": 2.0248, "Latitude": 3.14926, "Longitude": 101.51885}}, {"type": "Feature", "geometry": {"type": "Point", "coordinates": [101.378, 3.14]}, "properties": {"Nama": "Tanah Perkuburan Islam Kapar", "Kategori": "Perkuburan Islam", "Agama": "Islam", "Daerah": "Klang", "PBT": "MBDK", "Lokasi": "Kampung Perepat", "Alamat": "Jalan Benteng, Kampung Perepat, 42200 Kapar, Selangor, Malaysia", "Luas_Hek": 0.9598, "Latitude": 3.14, "Longitude": 101.378}}, {"type": "Feature", "geometry": {"type": "Point", "coordinates": [101.54858, 3.06389]}, "properties": {"Nama": "Tanah Perkuburan Islam Seksyen 21", "Kategori": "Perkuburan Islam", "Agama": "Islam", "Daerah": "Klang", "PBT": "MBSA", "Lokasi": "Seksyen 21", "Alamat": "Lot 981, Kompleks Perkuburan Bersepadu MBSA, Jalan Pusara 21/1, Seksyen 21, 40300 Shah Alam, Selangor, Malaysia", "Luas_Hek": 26.2562, "Latitude": 3.06389, "Longitude": 101.54858}}, {"type": "Feature", "geometry": {"type": "Point", "coordinates": [101.443202, 3.034199]}, "properties": {"Nama": "Tanah Perkuburan India Simpang Lima Klang", "Kategori": "Perkuburan Hindu", "Agama": "Bukan Islam", "Daerah": "Klang", "PBT": "MBDK", "Lokasi": "Simpang Lima", "Alamat": "Jalan Bukit Kubur, Kawasan 1, 41200 Klang, Selangor, Malaysia", "Luas_Hek": 1.9591, "Latitude": 3.034199, "Longitude": 101.443202}}, {"type": "Feature", "geometry": {"type": "Point", "coordinates": [101.56663, 2.93134]}, "properties": {"Nama": "Kuala Langat Chinese Cemetery", "Kategori": "Perkuburan Buddha/Tao", "Agama": "Bukan Islam", "Daerah": "Kuala Langat", "PBT": "MPKL", "Lokasi": "Banting", "Alamat": "42700 Banting, Selangor, Malaysia", "Luas_Hek": 8.7394, "Latitude": 2.93134, "Longitude": 101.56663}}, {"type": "Feature", "geometry": {"type": "Point", "coordinates": [101.567, 2.931]}, "properties": {"Nama": "Tapak Kubur Bukan Islam Taman Desa Kemandol", "Kategori": "Perkuburan Lain", "Agama": "Bukan Islam", "Daerah": "Kuala Langat", "PBT": "MPKL", "Lokasi": "Taman Desa Kemandol", "Alamat": "Taman Desa Kemandol, Kuala Langat, Selangor, Malaysia", "Luas_Hek": 20.2387, "Latitude": 2.931, "Longitude": 101.567}}, {"type": "Feature", "geometry": {"type": "Point", "coordinates": [101.566, 3.639]}, "properties": {"Nama": "Kalumpang Chinese Cemetery", "Kategori": "Perkuburan Buddha/Tao", "Agama": "Bukan Islam", "Daerah": "Hulu Selangor", "PBT": "MPHS", "Lokasi": "Kalumpang / Kerling", "Alamat": "Kerling, Selangor, Malaysia", "Luas_Hek": 7.409, "Latitude": 3.639, "Longitude": 101.566}}, {"type": "Feature", "geometry": {"type": "Point", "coordinates": [100.845513, 3.837213]}, "properties": {"Nama": "Tanah Perkuburan Islam Kariah Masjid Al-Ma'Arufiah, Kampung Parit Baru", "Kategori": "Perkuburan Islam", "Agama": "Islam", "Daerah": "Sabak Bernam", "PBT": "MDSB", "Lokasi": "Sungai Air Tawar", "Alamat": "Lot 5214 Kampung Parit Baru, 4500 Sungai Air Tawar, Selangor", "Luas_Hek": 1.4861, "Latitude": 3.837213, "Longitude": 100.845513}}, {"type": "Feature", "geometry": {"type": "Point", "coordinates": [100.87701, 3.800893]}, "properties": {"Nama": "Tanah Perkuburan Islam Kampung Sungai Tengar Selatan", "Kategori": "Perkuburan Islam", "Agama": "Islam", "Daerah": "Sabak Bernam", "PBT": "MDSB", "Lokasi": "Sungai Air Tawar", "Alamat": "Kampung Teluk Rhu, 45100 Sungai Air Tawar, Selangor", "Luas_Hek": 2.0613, "Latitude": 3.800893, "Longitude": 100.87701}}, {"type": "Feature", "geometry": {"type": "Point", "coordinates": [100.920873, 3.812946]}, "properties": {"Nama": "Tanah Perkuburan Islam Tebuk Mufrad", "Kategori": "Perkuburan Islam", "Agama": "Islam", "Daerah": "Sabak Bernam", "PBT": "MDSB", "Lokasi": "Sungai Air Tawar", "Alamat": "Tanah Perkuburan Islam Tebuk Mufrad 45100 Sungai Air Tawar, Selangor", "Luas_Hek": 1.6225, "Latitude": 3.812946, "Longitude": 100.920873}}, {"type": "Feature", "geometry": {"type": "Point", "coordinates": [100.950138, 3.811903]}, "properties": {"Nama": "Tanah Perkuburan Islam Jalan Dungun (Kariah Masjid Jamek Mahmudiah Kg.Baru)", "Kategori": "Perkuburan Islam", "Agama": "Islam", "Daerah": "Sabak Bernam", "PBT": "MDSB", "Lokasi": "Sungai Air Tawar", "Alamat": "Jalan Pekan Kampung Baru, Tanah Perkuburan Islam Jalan Dungun 45200 Sabak Bernam, Selangor", "Luas_Hek": 0.4785, "Latitude": 3.811903, "Longitude": 100.950138}}, {"type": "Feature", "geometry": {"type": "Point", "coordinates": [100.881205, 3.77706]}, "properties": {"Nama": "Tanah Perkuburan Islam Pekan Simpang Empat,Bagan Nakhoda Omar", "Kategori": "Perkuburan Islam", "Agama": "Islam", "Daerah": "Sabak Bernam", "PBT": "MDSB", "Lokasi": "Pekan Bagan Nakhoda Omar", "Alamat": "Tanh Perkuburan Islam, Pekan Simpang 4, Bagan Nakhoda Omar 45200 Sabak Bernam, Selangor", "Luas_Hek": 0.9193, "Latitude": 3.77706, "Longitude": 100.881205}}, {"type": "Feature", "geometry": {"type": "Point", "coordinates": [100.925511, 3.760793]}, "properties": {"Nama": "Tapak Tanah Perkuburan Islam Kampung Banting, Sabak Bernam", "Kategori": "Perkuburan Islam", "Agama": "Islam", "Daerah": "Sabak Bernam", "PBT": "MDSB", "Lokasi": "Sabak Bernam", "Alamat": "Jalan Kubur, Kampung Banting, 45400 Sabak, Selangor", "Luas_Hek": 0.8235, "Latitude": 3.760793, "Longitude": 100.925511}}, {"type": "Feature", "geometry": {"type": "Point", "coordinates": [100.926203, 3.728944]}, "properties": {"Nama": "Tanah Perkuburan Cina Sg Pulai", "Kategori": "Perkuburan Buddha/Tao", "Agama": "Bukan Islam", "Daerah": "Sabak Bernam", "PBT": "MDSB", "Lokasi": "Sungai Pulai / Kampung Sekendi", "Alamat": "Jalan Sem Bernam 2, Kampung Sekendi, 45200 Sabak, Selangor", "Luas_Hek": 1.448, "Latitude": 3.728944, "Longitude": 100.926203}}, {"type": "Feature", "geometry": {"type": "Point", "coordinates": [100.935129, 3.734772]}, "properties": {"Nama": "Tapak Tanah Perkuburan Islam  Kg. Sekendi", "Kategori": "Perkuburan Islam", "Agama": "Islam", "Daerah": "Sabak Bernam", "PBT": "MDSB", "Lokasi": "Sabak Bernam", "Alamat": "Jalan Masjid, Kampung Sekendi, 45400 Sabak, Selangor", "Luas_Hek": 0.6154, "Latitude": 3.734772, "Longitude": 100.935129}}, {"type": "Feature", "geometry": {"type": "Point", "coordinates": [100.963317, 3.747866]}, "properties": {"Nama": "Tapak Tanah Perkuburan Islam Kampung Batu 37 Darat", "Kategori": "Perkuburan Islam", "Agama": "Islam", "Daerah": "Sabak Bernam", "PBT": "MDSB", "Lokasi": "Sabak Bernam", "Alamat": "Jalan Masjid 45200 Sabak, Selangor", "Luas_Hek": 1.7457, "Latitude": 3.747866, "Longitude": 100.963317}}, {"type": "Feature", "geometry": {"type": "Point", "coordinates": [100.963317, 3.747866]}, "properties": {"Nama": "Tapak Tanah Perkuburan Islam Kampung Batu 37 Darat", "Kategori": "Perkuburan Islam", "Agama": "Islam", "Daerah": "Sabak Bernam", "PBT": "MDSB", "Lokasi": "Sabak Bernam", "Alamat": "Jalan Masjid 45200 Sabak, Selangor", "Luas_Hek": 2.0437, "Latitude": 3.747866, "Longitude": 100.963317}}, {"type": "Feature", "geometry": {"type": "Point", "coordinates": [100.97248, 3.767168]}, "properties": {"Nama": "Tapak Tanah Perkuburan Islam Bagan Terap", "Kategori": "Perkuburan Islam", "Agama": "Islam", "Daerah": "Sabak Bernam", "PBT": "MDSB", "Lokasi": "Bagan Terap", "Alamat": "Jalan Bagan Terap 45200 Sabak, Selangor", "Luas_Hek": 0.4271, "Latitude": 3.767168, "Longitude": 100.97248}}, {"type": "Feature", "geometry": {"type": "Point", "coordinates": [100.97248, 3.767168]}, "properties": {"Nama": "Tapak Tanah Perkuburan Islam Bagan Terap", "Kategori": "Perkuburan Islam", "Agama": "Islam", "Daerah": "Sabak Bernam", "PBT": "MDSB", "Lokasi": "Bagan Terap", "Alamat": "Jalan Bagan Terap 45200 Sabak, Selangor", "Luas_Hek": 0.4502, "Latitude": 3.767168, "Longitude": 100.97248}}, {"type": "Feature", "geometry": {"type": "Point", "coordinates": [100.979688, 3.761964]}, "properties": {"Nama": "Arulmigu Sri Maha Mugambikai Temple", "Kategori": "Perkuburan Hindu", "Agama": "Bukan Islam", "Daerah": "Sabak Bernam", "PBT": "MDSB", "Lokasi": "Sabak Bernam", "Alamat": "Jln Klang - Teluk Intan, Panchang Bedena, 45200 Sabak, Selangor Estate, 45200 Sabak, Selangor", "Luas_Hek": 1.238, "Latitude": 3.761964, "Longitude": 100.979688}}, {"type": "Feature", "geometry": {"type": "Point", "coordinates": [100.985154, 3.762333]}, "properties": {"Nama": "Tanah Perkuburan Cina Jalan Ladang Torkinton", "Kategori": "Perkuburan Buddha/Tao", "Agama": "Bukan Islam", "Daerah": "Sabak Bernam", "PBT": "MDSB", "Lokasi": "Sabak Bernam", "Alamat": "Jalan Ladang Torkinton, 45200, Sungai Besar Sabak Bernam, Selangor", "Luas_Hek": 1.2202, "Latitude": 3.762333, "Longitude": 100.985154}}, {"type": "Feature", "geometry": {"type": "Point", "coordinates": [100.98628, 3.762619]}, "properties": {"Nama": "Tanah Perkuburan Hindu Sabak Bernam", "Kategori": "Perkuburan Hindu", "Agama": "Bukan Islam", "Daerah": "Sabak Bernam", "PBT": "MDSB", "Lokasi": "Sabak Bernam", "Alamat": "Jalan Haji Ismail, Kampung Haji Ismail, 45200 Sabak, Selangor", "Luas_Hek": 2.0048, "Latitude": 3.762619, "Longitude": 100.98628}}, {"type": "Feature", "geometry": {"type": "Point", "coordinates": [101.009145, 3.788049]}, "properties": {"Nama": "Tanah Perkuburan Islam Kg. Batu 2 Sepintas", "Kategori": "Perkuburan Islam", "Agama": "Islam", "Daerah": "Sabak Bernam", "PBT": "MDSB", "Lokasi": "Batu 2 , Sepintas", "Alamat": "Jalan Parit 13, Batu 2 , Sepintas, 45200 Sabak Bernam, Selangor", "Luas_Hek": 1.8798, "Latitude": 3.788049, "Longitude": 101.009145}}, {"type": "Feature", "geometry": {"type": "Point", "coordinates": [101.018938, 3.780708]}, "properties": {"Nama": "Tanah Perkuburan Cina Batu 2 Sepintas", "Kategori": "Perkuburan Buddha/Tao", "Agama": "Bukan Islam", "Daerah": "Sabak Bernam", "PBT": "MDSB", "Lokasi": "Sabak Bernam", "Alamat": "Jalan Parit 13, Sepintas 45200 Sabak Bernam, Selangor", "Luas_Hek": 4.0238, "Latitude": 3.780708, "Longitude": 101.018938}}, {"type": "Feature", "geometry": {"type": "Point", "coordinates": [101.037564, 3.777042]}, "properties": {"Nama": "Tanah Perkuburan Islam Masjid Marzukiah Batu 4 Sepintas", "Kategori": "Perkuburan Islam", "Agama": "Islam", "Daerah": "Sabak Bernam", "PBT": "MDSB", "Lokasi": "Batu 4 Sepintas", "Alamat": "Jalan Syed Hasyim / Jalan Kubur, 45200 Selangor, Malaysia", "Luas_Hek": 2.076, "Latitude": 3.777042, "Longitude": 101.037564}}, {"type": "Feature", "geometry": {"type": "Point", "coordinates": [101.072091, 3.759956]}, "properties": {"Nama": "Tanah Perkuburan Islam Lubok Pusing", "Kategori": "Perkuburan Islam", "Agama": "Islam", "Daerah": "Sabak Bernam", "PBT": "MDSB", "Lokasi": "Kampung Lubuk Pusing, Sungai Besar", "Alamat": "Jalan Kubur, Kampung Lubuk Pusing, 45400 Sungai Besar, Selangor", "Luas_Hek": 0.4173, "Latitude": 3.759956, "Longitude": 101.072091}}, {"type": "Feature", "geometry": {"type": "Point", "coordinates": [101.072091, 3.759956]}, "properties": {"Nama": "Tanah Perkuburan Islam Lubok Pusing", "Kategori": "Perkuburan Islam", "Agama": "Islam", "Daerah": "Sabak Bernam", "PBT": "MDSB", "Lokasi": "Kampung Lubuk Pusing, Sungai Besar", "Alamat": "Jalan Kubur, Kampung Lubuk Pusing, 45400 Sungai Besar, Selangor", "Luas_Hek": 1.1541, "Latitude": 3.759956, "Longitude": 101.072091}}, {"type": "Feature", "geometry": {"type": "Point", "coordinates": [100.940924, 3.7142]}, "properties": {"Nama": "Tanah Perkuburan  Islam Jalan Sekendi", "Kategori": "Perkuburan Islam", "Agama": "Islam", "Daerah": "Sabak Bernam", "PBT": "MDSB", "Lokasi": "Jalan Sekendi Kampung Sungai Gatal", "Alamat": "Kampung Sungai Gatal, Jalan Sekendi 45400 Sabak Bernam, Selangor", "Luas_Hek": 0.7401, "Latitude": 3.7142, "Longitude": 100.940924}}, {"type": "Feature", "geometry": {"type": "Point", "coordinates": [100.964087, 3.685756]}, "properties": {"Nama": "Tanah Perkuburan Islam Kampung Panchang Bebena", "Kategori": "Perkuburan Islam", "Agama": "Islam", "Daerah": "Sabak Bernam", "PBT": "MDSB", "Lokasi": "Kampung Panchang Bebena,Sungai Besar", "Alamat": "Jalan Taman Pusara, Kampung Panchang Bebena,45300 Sungai Besar, Selangor", "Luas_Hek": 1.9118, "Latitude": 3.685756, "Longitude": 100.964087}}, {"type": "Feature", "geometry": {"type": "Point", "coordinates": [100.98863, 3.680941]}, "properties": {"Nama": "Tanah Perkuburan Islam Masjid Makmuriah Sungai Besar", "Kategori": "Perkuburan Islam", "Agama": "Islam", "Daerah": "Sabak Bernam", "PBT": "MDSB", "Lokasi": "Sungai Besar", "Alamat": "Sabak Bernam, 45400 Sungai Besar, Selangor", "Luas_Hek": 1.2264, "Latitude": 3.680941, "Longitude": 100.98863}}, {"type": "Feature", "geometry": {"type": "Point", "coordinates": [100.981867, 3.67073]}, "properties": {"Nama": "Tanah Perkuburan Cina Bagan, Sungai Besar", "Kategori": "Perkuburan Buddha/Tao", "Agama": "Bukan Islam", "Daerah": "Sabak Bernam", "PBT": "MDSB", "Lokasi": "Sungai Besar", "Alamat": "Lorong 4, Bagan Sungai Besar, 45300 Sungai Besar, Selangor", "Luas_Hek": 0.2579, "Latitude": 3.67073, "Longitude": 100.981867}}, {"type": "Feature", "geometry": {"type": "Point", "coordinates": [100.981867, 3.67073]}, "properties": {"Nama": "Tanah Perkuburan Cina Bagan, Sungai Besar", "Kategori": "Perkuburan Buddha/Tao", "Agama": "Bukan Islam", "Daerah": "Sabak Bernam", "PBT": "MDSB", "Lokasi": "Sungai Besar", "Alamat": "Lorong 4, Bagan Sungai Besar, 45300 Sungai Besar, Selangor", "Luas_Hek": 0.623, "Latitude": 3.67073, "Longitude": 100.981867}}, {"type": "Feature", "geometry": {"type": "Point", "coordinates": [101.032835, 3.689501]}, "properties": {"Nama": "Tanah Perkuburan Islam Parit 5½ Timur", "Kategori": "Perkuburan Islam", "Agama": "Islam", "Daerah": "Sabak Bernam", "PBT": "MDSB", "Lokasi": "Sungai Besar", "Alamat": "Jalan Sungai Panjang, Parit 7 Timur, 45300 Sungai Besar, Selangor", "Luas_Hek": 0.7468, "Latitude": 3.689501, "Longitude": 101.032835}}, {"type": "Feature", "geometry": {"type": "Point", "coordinates": [101.047458, 3.705128]}, "properties": {"Nama": "Tapak Perkuburan Islam Kampung Desa Permai", "Kategori": "Perkuburan Islam", "Agama": "Islam", "Daerah": "Sabak Bernam", "PBT": "MDSB", "Lokasi": "Sungai Besar", "Alamat": "Parit 8, Jalan Sungai Panjang, Kampung Desa Permai, 45300 Sungai Besar, Selangor", "Luas_Hek": 0.432, "Latitude": 3.705128, "Longitude": 101.047458}}, {"type": "Feature", "geometry": {"type": "Point", "coordinates": [101.022518, 3.639593]}, "properties": {"Nama": "Tanah perkuburan Islam Hj Dorani", "Kategori": "Perkuburan Islam", "Agama": "Islam", "Daerah": "Sabak Bernam", "PBT": "MDSB", "Lokasi": "Sungai Besar", "Alamat": "2, Jalan Lama Kuala Selangor, 45300 Sungai Besar, Selangor", "Luas_Hek": 2.0744, "Latitude": 3.639593, "Longitude": 101.022518}}, {"type": "Feature", "geometry": {"type": "Point", "coordinates": [101.130196, 3.724914]}, "properties": {"Nama": "Tanah Perkuburan Islam Kampung Binjai Jaya", "Kategori": "Perkuburan Islam", "Agama": "Islam", "Daerah": "Sabak Bernam", "PBT": "MDSB", "Lokasi": "Kampung Binjai Patah, Sungai Besar", "Alamat": "Kampung Binjai Patah, 45300 Sungai Besar, Selangor", "Luas_Hek": 2.094, "Latitude": 3.724914, "Longitude": 101.130196}}, {"type": "Feature", "geometry": {"type": "Point", "coordinates": [101.180471, 3.707416]}, "properties": {"Nama": "Tanah Perkuburan Islam Kg Belia 2", "Kategori": "Perkuburan Islam", "Agama": "Islam", "Daerah": "Sabak Bernam", "PBT": "MDSB", "Lokasi": "Kampung Hala Cara Baru, Sungai Besar", "Alamat": "Jalan Sungai Panjang, Kampung Hala Cara Baru, 45300 Sungai Besar, Selangor", "Luas_Hek": 2.6669, "Latitude": 3.707416, "Longitude": 101.180471}}, {"type": "Feature", "geometry": {"type": "Point", "coordinates": [101.088726, 3.531645]}, "properties": {"Nama": "Tanah Perkuburan Masjid Nurul Falah", "Kategori": "Perkuburan Islam", "Agama": "Islam", "Daerah": "Sabak Bernam", "PBT": "MDSB", "Lokasi": "Sekinchan", "Alamat": "Tali Air 7, Sengai Leman, 45400 Sekinchan, Selangor", "Luas_Hek": 1.5486, "Latitude": 3.531645, "Longitude": 101.088726}}, {"type": "Feature", "geometry": {"type": "Point", "coordinates": [101.139143, 3.460923]}, "properties": {"Nama": "Tanah Perkuburan Islam Masjid Batu 12, Sg Burung", "Kategori": "Perkuburan Islam", "Agama": "Islam", "Daerah": "Kuala Selangor", "PBT": "MPKS", "Lokasi": "Tanjung Karang", "Alamat": "12, Jalan Parit 2 Sungai Burung, Kampung Sungai Burung, 45400 Tanjong Karang, Selangor", "Luas_Hek": 2.4224, "Latitude": 3.460923, "Longitude": 101.139143}}, {"type": "Feature", "geometry": {"type": "Point", "coordinates": [101.139077, 3.441581]}, "properties": {"Nama": "Tanah Perkuburan Islam Kg Melaka", "Kategori": "Perkuburan Islam", "Agama": "Islam", "Daerah": "Kuala Selangor", "PBT": "MPKS", "Lokasi": "Tanjung Karang", "Alamat": "Jalan Rtb Bagan Tengkorak, Bagan Sungai Tengkorak, 45500 Tanjong Karang, Selangor", "Luas_Hek": 1.1356, "Latitude": 3.441581, "Longitude": 101.139077}}, {"type": "Feature", "geometry": {"type": "Point", "coordinates": [101.17494, 3.469697]}, "properties": {"Nama": "Tanah Wakaf Perkuburan Orang-orang Islam Kg Sg Sireh", "Kategori": "Perkuburan Islam", "Agama": "Islam", "Daerah": "Kuala Selangor", "PBT": "MPKS", "Lokasi": "Tanjung Karang", "Alamat": "lorong 7, 8, Jalan Parit Satu Sungai Sireh, Kampung Sungai Sireh Batu Sebelas, 45500 Tanjung Karang, Selangor", "Luas_Hek": 1.6193, "Latitude": 3.469697, "Longitude": 101.17494}}, {"type": "Feature", "geometry": {"type": "Point", "coordinates": [101.167814, 3.417413]}, "properties": {"Nama": "Tanah Perkuburan Islam Ar Raudhah 2", "Kategori": "Perkuburan Islam", "Agama": "Islam", "Daerah": "Kuala Selangor", "PBT": "MPKS", "Lokasi": "Tanjung Karang", "Alamat": "Jalan Sungai Kajang Lama, Pekan Tanjong Karang, 45500 Tanjung Karang, Selangor", "Luas_Hek": 0.8354, "Latitude": 3.417413, "Longitude": 101.167814}}, {"type": "Feature", "geometry": {"type": "Point", "coordinates": [101.173674, 3.424121]}, "properties": {"Nama": "Tanah Perkuburan Islam Pekan Tanjung Karang (Ar Raudhah)", "Kategori": "Perkuburan Islam", "Agama": "Islam", "Daerah": "Kuala Selangor", "PBT": "MPKS", "Lokasi": "Tanjung Karang", "Alamat": "Pekan Tanjong Karang, 45500 Tanjung Karang, Selangor", "Luas_Hek": 1.9966, "Latitude": 3.424121, "Longitude": 101.173674}}, {"type": "Feature", "geometry": {"type": "Point", "coordinates": [101.197303, 3.442487]}, "properties": {"Nama": "Tanah Perkuburan Islam Kampong Sungai Tengi Kanan", "Kategori": "Perkuburan Islam", "Agama": "Islam", "Daerah": "Kuala Selangor", "PBT": "MPKS", "Lokasi": "Tanjung Karang", "Alamat": "Kampung Sungai Tengi Kanan, 45500 Tanjung Karang, Selangor", "Luas_Hek": 1.2498, "Latitude": 3.442487, "Longitude": 101.197303}}, {"type": "Feature", "geometry": {"type": "Point", "coordinates": [101.240583, 3.450337]}, "properties": {"Nama": "Tapak Tanah Perkuburan IslamTiram  Jaya", "Kategori": "Perkuburan Islam", "Agama": "Islam", "Daerah": "Kuala Selangor", "PBT": "MPKS", "Lokasi": "Tanjung Karang", "Alamat": "4259, Lorong Masjid 2, Kampung Ulu Tiram Buruk, 45500 Tanjong Karang, Selangor", "Luas_Hek": 0.5022, "Latitude": 3.450337, "Longitude": 101.240583}}, {"type": "Feature", "geometry": {"type": "Point", "coordinates": [101.199936, 3.406837]}, "properties": {"Nama": "Tanah Perkuburan Islam Kampong Sungai Gulang-gulang Tanjong Karang", "Kategori": "Perkuburan Islam", "Agama": "Islam", "Daerah": "Kuala Selangor", "PBT": "MPKS", "Lokasi": "Tanjung Karang", "Alamat": "Batu 51/2, Jalan Bernam, 45500 Tanjung Karang, Selangor", "Luas_Hek": 1.6134, "Latitude": 3.406837, "Longitude": 101.199936}}, {"type": "Feature", "geometry": {"type": "Point", "coordinates": [101.234348, 3.41281]}, "properties": {"Nama": "Tanah Perkuburan Kampung Parit Serong", "Kategori": "Perkuburan Islam", "Agama": "Islam", "Daerah": "Kuala Selangor", "PBT": "MPKS", "Lokasi": "Tanjung Karang", "Alamat": "Jalan Pusara, Kampung Parit Serong, 45500 Tanjong Karang, Selangor", "Luas_Hek": 1.1128, "Latitude": 3.41281, "Longitude": 101.234348}}, {"type": "Feature", "geometry": {"type": "Point", "coordinates": [101.222223, 3.388212]}, "properties": {"Nama": "Tanah Perkuburan Islam Sungai Terap Permatang", "Kategori": "Perkuburan Islam", "Agama": "Islam", "Daerah": "Kuala Selangor", "PBT": "MPKS", "Lokasi": "Tanjung Karang", "Alamat": "Jalan Kampung Sungai Terap, Kampung Sungai Terap, 45500 Tanjung Karang, Selangor", "Luas_Hek": 0.8555, "Latitude": 3.388212, "Longitude": 101.222223}}, {"type": "Feature", "geometry": {"type": "Point", "coordinates": [101.251193, 3.375036]}, "properties": {"Nama": "Tanah Perkuburan Islam Kampung Ujong Permatang", "Kategori": "Perkuburan Islam", "Agama": "Islam", "Daerah": "Kuala Selangor", "PBT": "MPKS", "Lokasi": "Kuala Selangor", "Alamat": "Jln Ujung Permatang, Kampung Ujong Permatang, 45000 Kuala Selangor, Selangor", "Luas_Hek": 0.3932, "Latitude": 3.375036, "Longitude": 101.251193}}, {"type": "Feature", "geometry": {"type": "Point", "coordinates": [101.278326, 3.390803]}, "properties": {"Nama": "Tanah Perkuburan Islam Bukit Belimbing", "Kategori": "Perkuburan Islam", "Agama": "Islam", "Daerah": "Kuala Selangor", "PBT": "MPKS", "Lokasi": "Kuala Selangor", "Alamat": "Jalan Bukit Belimbing, Kampung Bukit Belimbing, 45000 Kuala Selangor, Selangor", "Luas_Hek": 0.4905, "Latitude": 3.390803, "Longitude": 101.278326}}, {"type": "Feature", "geometry": {"type": "Point", "coordinates": [101.278326, 3.390803]}, "properties": {"Nama": "Tanah Perkuburan Islam Bukit Belimbing", "Kategori": "Perkuburan Islam", "Agama": "Islam", "Daerah": "Kuala Selangor", "PBT": "MPKS", "Lokasi": "Kuala Selangor", "Alamat": "Jalan Bukit Belimbing, Kampung Bukit Belimbing, 45000 Kuala Selangor, Selangor", "Luas_Hek": 0.2923, "Latitude": 3.390803, "Longitude": 101.278326}}, {"type": "Feature", "geometry": {"type": "Point", "coordinates": [101.316476, 3.408517]}, "properties": {"Nama": "Tanah Perkuburan Islam Kampung Raja Musa", "Kategori": "Perkuburan Islam", "Agama": "Islam", "Daerah": "Kuala Selangor", "PBT": "MPKS", "Lokasi": "Kuala Selangor", "Alamat": "Kampung Raja Musa, 45500 Kuala Selangor, Selangor", "Luas_Hek": 1.1258, "Latitude": 3.408517, "Longitude": 101.316476}}, {"type": "Feature", "geometry": {"type": "Point", "coordinates": [101.251409, 3.358414]}, "properties": {"Nama": "Tanah Perkuburan Islam Kampung Permatang Kuala Selangor", "Kategori": "Perkuburan Islam", "Agama": "Islam", "Daerah": "Kuala Selangor", "PBT": "MPKS", "Lokasi": "Kuala Selangor", "Alamat": "Jalan Permatang, Kampung Permatang, 45000 Kuala Selangor, Selangor", "Luas_Hek": 0.3368, "Latitude": 3.358414, "Longitude": 101.251409}}, {"type": "Feature", "geometry": {"type": "Point", "coordinates": [101.252177, 3.34975]}, "properties": {"Nama": "Tanah Perkuburan Islam Jalan Pasir Penambang", "Kategori": "Perkuburan Islam", "Agama": "Islam", "Daerah": "Kuala Selangor", "PBT": "MPKS", "Lokasi": "Kuala Selangor", "Alamat": "Jalan Besar, Pasir Penambang, 45000 Kuala Selangor, Selangor", "Luas_Hek": 0.2035, "Latitude": 3.34975, "Longitude": 101.252177}}, {"type": "Feature", "geometry": {"type": "Point", "coordinates": [101.240499, 3.347014]}, "properties": {"Nama": "Makam Keramat Anak Dara", "Kategori": "Perkuburan Islam", "Agama": "Islam", "Daerah": "Kuala Selangor", "PBT": "MPKS", "Lokasi": "Kuala Selangor", "Alamat": "Kampung Tanjung Keramat, 45000 Kuala Selangor, Selangor", "Luas_Hek": 0.0903, "Latitude": 3.347014, "Longitude": 101.240499}}, {"type": "Feature", "geometry": {"type": "Point", "coordinates": [101.240499, 3.347014]}, "properties": {"Nama": "Makam Keramat Anak Dara", "Kategori": "Perkuburan Islam", "Agama": "Islam", "Daerah": "Kuala Selangor", "PBT": "MPKS", "Lokasi": "Kuala Selangor", "Alamat": "Kampung Tanjung Keramat, 45000 Kuala Selangor, Selangor", "Luas_Hek": 0.0111, "Latitude": 3.347014, "Longitude": 101.240499}}, {"type": "Feature", "geometry": {"type": "Point", "coordinates": [101.252, 3.339]}, "properties": {"Nama": "Chinese Cemetery Melawati Hill", "Kategori": "Perkuburan Buddha/Tao", "Agama": "Bukan Islam", "Daerah": "Kuala Selangor", "PBT": "MPKS", "Lokasi": "Bukit Melawati, Kuala Selangor", "Alamat": "686, Jalan Klinik, Taman Malawati, 45000 Kuala Selangor, Selangor", "Luas_Hek": 1.3774, "Latitude": 3.339, "Longitude": 101.252}}, {"type": "Feature", "geometry": {"type": "Point", "coordinates": [101.289475, 3.298566]}, "properties": {"Nama": "Tanah Perkuburan Islam Kampung Ku Sayang Assam Jawa", "Kategori": "Perkuburan Islam", "Agama": "Islam", "Daerah": "Kuala Selangor", "PBT": "MPKS", "Lokasi": "Kuala Selangor", "Alamat": "Jalan Kapar, Asam Jawa, 45800 Jeram, Selangor", "Luas_Hek": 0.6947, "Latitude": 3.298566, "Longitude": 101.289475}}, {"type": "Feature", "geometry": {"type": "Point", "coordinates": [101.289475, 3.298566]}, "properties": {"Nama": "Tanah Perkuburan Islam Kampung Ku Sayang Assam Jawa", "Kategori": "Perkuburan Islam", "Agama": "Islam", "Daerah": "Kuala Selangor", "PBT": "MPKS", "Lokasi": "Kuala Selangor", "Alamat": "Jalan Kapar, Asam Jawa, 45800 Jeram, Selangor", "Luas_Hek": 0.8537, "Latitude": 3.298566, "Longitude": 101.289475}}, {"type": "Feature", "geometry": {"type": "Point", "coordinates": [101.297193, 3.284985]}, "properties": {"Nama": "Tanah Perkuburan Islam Kariah Masjid Kg.Api-api", "Kategori": "Perkuburan Islam", "Agama": "Islam", "Daerah": "Kuala Selangor", "PBT": "MPKS", "Lokasi": "Kuala Selangor", "Alamat": "Jalan Permatang Tengah, Kampung Api Api, 45700 Kuala Selangor, Selangor", "Luas_Hek": 0.7835, "Latitude": 3.284985, "Longitude": 101.297193}}, {"type": "Feature", "geometry": {"type": "Point", "coordinates": [101.330329, 3.22669]}, "properties": {"Nama": "Tanah Perkuburan Muslimin Kariah Jeram", "Kategori": "Perkuburan Islam", "Agama": "Islam", "Daerah": "Kuala Selangor", "PBT": "MPKS", "Lokasi": "Jeram", "Alamat": "Jalan Pusara, Kampung Bukit Kuching, 45800 Jeram, Selangor", "Luas_Hek": 2.0051, "Latitude": 3.22669, "Longitude": 101.330329}}, {"type": "Feature", "geometry": {"type": "Point", "coordinates": [101.366166, 3.249538]}, "properties": {"Nama": "Tanah perkuburan Islam Masjid Nurul Amin Kampung Bukit Kuching Tengah", "Kategori": "Perkuburan Islam", "Agama": "Islam", "Daerah": "Kuala Selangor", "PBT": "MPKS", "Lokasi": "Jeram", "Alamat": "Jalan Balai Raya, 45600 Jeram, Selangor", "Luas_Hek": 1.9798, "Latitude": 3.249538, "Longitude": 101.366166}}, {"type": "Feature", "geometry": {"type": "Point", "coordinates": [101.366166, 3.249538]}, "properties": {"Nama": "Tanah perkuburan Islam Masjid Nurul Amin Kampung Bukit Kuching Tengah", "Kategori": "Perkuburan Islam", "Agama": "Islam", "Daerah": "Kuala Selangor", "PBT": "MPKS", "Lokasi": "Jeram", "Alamat": "Jalan Balai Raya, 45600 Jeram, Selangor", "Luas_Hek": 0.7922, "Latitude": 3.249538, "Longitude": 101.366166}}, {"type": "Feature", "geometry": {"type": "Point", "coordinates": [101.367473, 3.274483]}, "properties": {"Nama": "Tanah Perkuburan Islam 4 Buah Kampung", "Kategori": "Perkuburan Islam", "Agama": "Islam", "Daerah": "Kuala Selangor", "PBT": "MPKS", "Lokasi": "Kg Bukit Cheraka, Jeram", "Alamat": "Jalan Rizab Sempadan,Kampung Bukit Cherakah 45800 Jeram, Selangor", "Luas_Hek": 2.0639, "Latitude": 3.274483, "Longitude": 101.367473}}, {"type": "Feature", "geometry": {"type": "Point", "coordinates": [101.36804, 3.274224]}, "properties": {"Nama": "Tanah Perkuburan Islam Lot 3104, Kg. Bukit Cheraka 45800 Jeram, Selangor", "Kategori": "Perkuburan Islam", "Agama": "Islam", "Daerah": "Kuala Selangor", "PBT": "MPKS", "Lokasi": "Kg Bukit Cheraka, Jeram", "Alamat": "Jalan Parit Mahang, Kampung Bukit Cherakah, 45800 Jeram, Selangor", "Luas_Hek": 0.7392, "Latitude": 3.274224, "Longitude": 101.36804}}, {"type": "Feature", "geometry": {"type": "Point", "coordinates": [101.313627, 3.190986]}, "properties": {"Nama": "Tanah Perkuburan Islam Sungai Sembilang", "Kategori": "Perkuburan Islam", "Agama": "Islam", "Daerah": "Kuala Selangor", "PBT": "MPKS", "Lokasi": "Jeram", "Alamat": "Kampung Sungai Sembilang, 45600 Jeram, Selangor", "Luas_Hek": 0.7086, "Latitude": 3.190986, "Longitude": 101.313627}}, {"type": "Feature", "geometry": {"type": "Point", "coordinates": [101.31727, 3.363018]}, "properties": {"Nama": "Tanah Perkuburan Islam Bt. 6", "Kategori": "Perkuburan Islam", "Agama": "Islam", "Daerah": "Kuala Selangor", "PBT": "MPKS", "Lokasi": "Kuala Selangor", "Alamat": "Batu 6, Kampung Asahan, 45600 Batang Berjuntai, Selangor", "Luas_Hek": 1.0781, "Latitude": 3.363018, "Longitude": 101.31727}}, {"type": "Feature", "geometry": {"type": "Point", "coordinates": [101.40959, 3.315908]}, "properties": {"Nama": "Tanah Perkuburan Islam Kampung Harmoni Simpang Tiga Ijok", "Kategori": "Perkuburan Islam", "Agama": "Islam", "Daerah": "Kuala Selangor", "PBT": "MPKS", "Lokasi": "Ijok", "Alamat": "Jln Seri Ijok 7, Kampung Ijok, 45700 Bukit Rotan, Selangor", "Luas_Hek": 1.1998, "Latitude": 3.315908, "Longitude": 101.40959}}]}